{"type":"FeatureCollection","features":[{"type":"Feature","geometry":{"type":"Polygon","coordinates":[[[8.404737,50.011967],[8.404697,50.011974],[8.404661,50.011959],[8.404631,50.01183],[8.404553,50.011647],[8.404549,50.011545],[8.404463,50.011464],[8.404366,50.011468],[8.404278,50.011498],[8.404269,50.011571],[8.404312,50.01187],[8.404358,50.012],[8.404738,50.012],[8.404737,50.011967]]]},"properties":{"layer":"landuse","sub":"agriculture","cls":"meadow"}},{"type":"Feature","geometry":{"type":"Polygon","coordinates":[[[8.405069,50.011983],[8.40496,50.011836],[8.404809,50.011856],[8.404791,50.01187],[8.404797,50.012],[8.405078,50.012],[8.405069,50.011983]]]},"properties":{"layer":"landuse","sub":"agriculture","cls":"farmland"}},{"type":"Feature","geometry":{"type":"MultiPolygon","coordinates":[[[[8.407818,50.01198],[8.409443,50.011571],[8.409379,50.011421],[8.40932,50.011242],[8.409271,50.010968],[8.409204,50.010764],[8.409065,50.01034],[8.407232,50.010611],[8.407177,50.01062],[8.40716,50.01053],[8.407158,50.010454],[8.406166,50.010634],[8.406153,50.010701],[8.406293,50.011277],[8.406346,50.011492],[8.406249,50.011512],[8.406209,50.011429],[8.405132,50.011634],[8.405135,50.011778],[8.40496,50.011836],[8.405069,50.011983],[8.405078,50.012],[8.407838,50.012],[8.407818,50.01198]]],[[[8.409738,50.01199],[8.40951,50.011657],[8.40808,50.012],[8.409747,50.012],[8.409738,50.01199]]]]},"properties":{"layer":"landuse","sub":"agriculture","cls":"farmland"}},{"type":"Feature","geometry":{"type":"Polygon","coordinates":[[[8.405331,50.010584],[8.404996,50.010588],[8.40503,50.01125],[8.405089,50.011472],[8.406293,50.011277],[8.406153,50.010701],[8.406166,50.010634],[8.406125,50.010555],[8.406086,50.01034],[8.405331,50.010584]]]},"properties":{"layer":"landuse","sub":"agriculture","cls":"farmland"}},{"type":"Feature","geometry":{"type":"Polygon","coordinates":[[[8.406125,50.010555],[8.407082,50.010424],[8.407168,50.010345],[8.407174,50.01025],[8.406788,50.008779],[8.406503,50.007643],[8.406446,50.007505],[8.406433,50.007453],[8.405409,50.007548],[8.405585,50.007943],[8.405905,50.009221],[8.406086,50.01034],[8.406125,50.010555]]]},"properties":{"layer":"landuse","sub":"agriculture","cls":"farmland"}},{"type":"Feature","geometry":{"type":"Polygon","coordinates":[[[8.408761,50.009584],[8.408625,50.009189],[8.408352,50.008439],[8.408247,50.008139],[8.408179,50.007865],[8.40809,50.007352],[8.408053,50.007147],[8.407947,50.006384],[8.407112,50.00605],[8.4067,50.005959],[8.406624,50.006008],[8.406525,50.006165],[8.406411,50.006447],[8.406422,50.006846],[8.406539,50.007435],[8.406744,50.008343],[8.407096,50.009723],[8.408099,50.009608],[8.408144,50.009661],[8.408761,50.009584]]]},"properties":{"layer":"landuse","sub":"horticulture","cls":"allotments"}},{"type":"Feature","geometry":{"type":"Polygon","coordinates":[[[8.406433,50.007453],[8.406445,50.007376],[8.405372,50.007486],[8.405409,50.007548],[8.406433,50.007453]]]},"properties":{"layer":"landuse","sub":"horticulture","cls":"allotments"}},{"type":"Feature","geometry":{"type":"Polygon","coordinates":[[[8.404132,50.005246],[8.403994,50.005152],[8.403894,50.005213],[8.403931,50.005238],[8.403775,50.005333],[8.404317,50.005701],[8.40429,50.005717],[8.404403,50.005794],[8.404709,50.005608],[8.404155,50.005232],[8.404132,50.005246]]]},"properties":{"layer":"landuse","sub":"recreation","cls":"pitch"}},{"type":"Feature","geometry":{"type":"Polygon","coordinates":[[[8.404788,50.008333],[8.404421,50.006931],[8.404331,50.006745],[8.404231,50.006301],[8.403888,50.005967],[8.403508,50.0056],[8.4035,50.005595],[8.4035,50.008211],[8.404788,50.008333]]]},"properties":{"layer":"landuse","sub":"landfill","cls":"landfill"}},{"type":"Feature","geometry":{"type":"Polygon","coordinates":[[[8.406372,50.007042],[8.406322,50.006813],[8.406336,50.006416],[8.406372,50.006267],[8.406591,50.005916],[8.406413,50.00581],[8.406037,50.006206],[8.405735,50.006214],[8.405542,50.006217],[8.405081,50.006265],[8.405168,50.007138],[8.406372,50.007042]]]},"properties":{"layer":"landuse","sub":"agriculture","cls":"farmland"}},{"type":"Feature","geometry":{"type":"Polygon","coordinates":[[[8.406445,50.007376],[8.4064,50.007152],[8.405242,50.007264],[8.405372,50.007486],[8.406445,50.007376]]]},"properties":{"layer":"landuse","sub":"agriculture","cls":"meadow"}},{"type":"Feature","geometry":{"type":"Polygon","coordinates":[[[8.405168,50.007138],[8.405242,50.007264],[8.4064,50.007152],[8.406372,50.007042],[8.405168,50.007138]]]},"properties":{"layer":"landuse","sub":"horticulture","cls":"allotments"}},{"type":"Feature","geometry":{"type":"Polygon","coordinates":[[[8.406037,50.006206],[8.406413,50.00581],[8.406172,50.005696],[8.405735,50.006214],[8.406037,50.006206]]]},"properties":{"layer":"landuse","sub":"horticulture","cls":"allotments"}},{"type":"Feature","geometry":{"type":"Polygon","coordinates":[[[8.405735,50.006214],[8.406172,50.005696],[8.405951,50.005591],[8.405286,50.005352],[8.405068,50.005564],[8.405048,50.00567],[8.405067,50.005781],[8.405436,50.006048],[8.405542,50.006217],[8.405735,50.006214]]]},"properties":{"layer":"landuse","sub":"agriculture","cls":"meadow"}},{"type":"Feature","geometry":{"type":"Polygon","coordinates":[[[8.406943,50.00548],[8.40721,50.005184],[8.407131,50.005165],[8.406948,50.005082],[8.406913,50.005035],[8.406872,50.005001],[8.406778,50.005002],[8.406456,50.005387],[8.406943,50.00548]]]},"properties":{"layer":"landuse","sub":"horticulture","cls":"allotments"}},{"type":"Feature","geometry":{"type":"Polygon","coordinates":[[[8.405601,50.005136],[8.405961,50.005271],[8.406192,50.005342],[8.406456,50.005387],[8.406778,50.005002],[8.406872,50.005001],[8.406913,50.005035],[8.406948,50.005082],[8.407131,50.005165],[8.40721,50.005184],[8.407332,50.005213],[8.407375,50.005118],[8.407171,50.005039],[8.407072,50.005047],[8.406986,50.004981],[8.406994,50.004927],[8.405678,50.004589],[8.405334,50.005068],[8.405601,50.005136]]]},"properties":{"layer":"landuse","sub":"agriculture","cls":"meadow"}},{"type":"Feature","geometry":{"type":"Polygon","coordinates":[[[8.407258,50.004655],[8.407121,50.004864],[8.407249,50.004914],[8.407484,50.004978],[8.408317,50.003677],[8.407987,50.003571],[8.407258,50.004655]]]},"properties":{"layer":"landuse","sub":"agriculture","cls":"farmland"}},{"type":"Feature","geometry":{"type":"Polygon","coordinates":[[[8.403697,50.003292],[8.405837,50.003661],[8.406022,50.003378],[8.40383,50.00303],[8.403697,50.003292]]]},"properties":{"layer":"landuse","sub":"horticulture","cls":"allotments"}},{"type":"Feature","geometry":{"type":"Polygon","coordinates":[[[8.405837,50.003661],[8.403697,50.003292],[8.403579,50.00373],[8.403673,50.003697],[8.404521,50.003863],[8.404558,50.003835],[8.404853,50.003868],[8.4049,50.003929],[8.405609,50.004067],[8.405837,50.003661]]]},"properties":{"layer":"landuse","sub":"agriculture","cls":"meadow"}},{"type":"Feature","geometry":{"type":"Polygon","coordinates":[[[8.403641,50.004731],[8.404075,50.004788],[8.40426,50.004532],[8.404567,50.004149],[8.404636,50.004134],[8.404709,50.004172],[8.404702,50.004222],[8.40427,50.004761],[8.404215,50.004797],[8.404202,50.004816],[8.404803,50.004929],[8.405334,50.005068],[8.405678,50.004589],[8.404959,50.004404],[8.40494,50.004367],[8.405023,50.004254],[8.405029,50.00419],[8.405022,50.004102],[8.403589,50.003819],[8.403579,50.00373],[8.403697,50.003292],[8.40383,50.00303],[8.406022,50.003378],[8.406092,50.003269],[8.403573,50.002873],[8.4035,50.002955],[8.4035,50.004716],[8.403641,50.004731]]]},"properties":{"layer":"landuse","sub":"agriculture","cls":"meadow"}},{"type":"Feature","geometry":{"type":"Polygon","coordinates":[[[8.405975,50.004358],[8.40632,50.003849],[8.406238,50.003824],[8.406258,50.003757],[8.406337,50.003762],[8.406423,50.003653],[8.406526,50.003653],[8.406607,50.003694],[8.406879,50.003221],[8.406243,50.003033],[8.406092,50.003269],[8.406022,50.003378],[8.405837,50.003661],[8.405609,50.004067],[8.405527,50.004201],[8.405975,50.004358]]]},"properties":{"layer":"landuse","sub":"agriculture","cls":"farmland"}},{"type":"Feature","geometry":{"type":"Polygon","coordinates":[[[8.405029,50.00419],[8.405023,50.004254],[8.4051,50.004247],[8.405599,50.004353],[8.405737,50.004399],[8.405899,50.004424],[8.406047,50.00447],[8.406634,50.004616],[8.407048,50.004739],[8.407121,50.004864],[8.407258,50.004655],[8.406931,50.004565],[8.407647,50.003456],[8.406879,50.003221],[8.406607,50.003694],[8.406194,50.004379],[8.40614,50.00441],[8.405975,50.004358],[8.405527,50.004201],[8.405022,50.004102],[8.405029,50.00419]]]},"properties":{"layer":"landuse","sub":"agriculture","cls":"meadow"}},{"type":"Feature","geometry":{"type":"Polygon","coordinates":[[[8.406931,50.004565],[8.407258,50.004655],[8.407987,50.003571],[8.407647,50.003456],[8.406931,50.004565]]]},"properties":{"layer":"landuse","sub":"agriculture","cls":"farmland"}},{"type":"Feature","geometry":{"type":"Polygon","coordinates":[[[8.404204,50.002496],[8.404042,50.002477],[8.403981,50.002496],[8.403573,50.002873],[8.406092,50.003269],[8.406243,50.003033],[8.404204,50.002496]]]},"properties":{"layer":"landuse","sub":"agriculture","cls":"meadow"}},{"type":"Feature","geometry":{"type":"Polygon","coordinates":[[[8.408052,50.002273],[8.408091,50.002211],[8.40791,50.002159],[8.40802,50.002016],[8.40802,50.001975],[8.407999,50.00195],[8.40796,50.001931],[8.407769,50.001884],[8.407758,50.001868],[8.407815,50.00179],[8.407429,50.001677],[8.407142,50.002082],[8.407298,50.002127],[8.407319,50.002102],[8.408002,50.0023],[8.408052,50.002273]]]},"properties":{"layer":"landuse","sub":"managed","cls":"grass"}},{"type":"Feature","geometry":{"type":"Polygon","coordinates":[[[8.404115,50.002208],[8.404455,50.001514],[8.403857,50.001294],[8.403701,50.001511],[8.4035,50.001451],[8.4035,50.002061],[8.404115,50.002208]]]},"properties":{"layer":"landuse","sub":"developed","cls":"industrial"}},{"type":"Feature","geometry":{"type":"Polygon","coordinates":[[[8.404001,49.999364],[8.403908,49.99968],[8.403862,49.999802],[8.404523,49.999086],[8.403928,49.999036],[8.404001,49.999364]]]},"properties":{"layer":"landuse","sub":"agriculture","cls":"meadow"}},{"type":"Feature","geometry":{"type":"Polygon","coordinates":[[[8.404203,50.001584],[8.404261,50.001498],[8.404485,50.001565],[8.40453,50.001477],[8.404436,50.001448],[8.405232,50.000287],[8.405144,50.000224],[8.403888,49.999882],[8.4035,50.000462],[8.4035,50.001385],[8.404203,50.001584]]]},"properties":{"layer":"landuse","sub":"developed","cls":"industrial"}},{"type":"Feature","geometry":{"type":"Polygon","coordinates":[[[8.403923,49.999016],[8.403947,49.999016],[8.403974,49.998843],[8.403913,49.998798],[8.403908,49.998576],[8.403696,49.998463],[8.403813,49.997738],[8.4035,49.997726],[8.4035,49.998552],[8.403923,49.999016]]]},"properties":{"layer":"landuse","sub":"managed","cls":"grass"}},{"type":"Feature","geometry":{"type":"Polygon","coordinates":[[[8.403587,49.997572],[8.403893,49.997592],[8.403895,49.997608],[8.40441,49.997652],[8.404533,49.997667],[8.405135,49.997735],[8.405053,49.998131],[8.405389,49.998149],[8.405449,49.997813],[8.405691,49.997835],[8.405796,49.9975],[8.4035,49.9975],[8.4035,49.997568],[8.403587,49.997572]]]},"properties":{"layer":"landuse","sub":"agriculture","cls":"meadow"}},{"type":"Feature","geometry":{"type":"Polygon","coordinates":[[[8.419343,49.997746],[8.419954,49.997994],[8.420086,49.99806],[8.420586,49.998251],[8.42085,49.998343],[8.421452,49.998553],[8.421887,49.998689],[8.421945,49.998771],[8.422753,49.998957],[8.42349,49.999089],[8.4235,49.999093],[8.4235,49.9975],[8.418819,49.9975],[8.419343,49.997746]]]},"properties":{"layer":"landuse","sub":"residential","cls":"residential"}},{"type":"Feature","geometry":{"type":"Polygon","coordinates":[[[8.413765,49.997698],[8.414329,49.997883],[8.414493,49.997676],[8.413957,49.9975],[8.413922,49.9975],[8.413765,49.997698]]]},"properties":{"layer":"landuse","sub":"recreation","cls":"pitch"}},{"type":"Feature","geometry":{"type":"Polygon","coordinates":[[[8.405765,49.997828],[8.406834,49.998038],[8.407055,49.997974],[8.408183,49.998084],[8.408812,49.998277],[8.409023,49.998494],[8.410622,49.999108],[8.411072,49.998401],[8.410956,49.998362],[8.41082,49.998496],[8.410599,49.998413],[8.410485,49.998197],[8.41032,49.99814],[8.410303,49.998264],[8.40913,49.997922],[8.409088,49.997811],[8.408604,49.997682],[8.408611,49.9978],[8.408052,49.997664],[8.407399,49.9975],[8.405873,49.9975],[8.405765,49.997828]]]},"properties":{"layer":"landuse","sub":"agriculture","cls":"meadow"}},{"type":"Feature","geometry":{"type":"Polygon","coordinates":[[[8.417589,49.999627],[8.417726,49.999745],[8.418112,49.999976],[8.418104,50.000046],[8.418418,50.000189],[8.418455,50.000265],[8.418463,50.000341],[8.41891,50.000586],[8.419125,50.000692],[8.419386,50.000552],[8.419379,50.000476],[8.419308,50.000317],[8.419175,50.000273],[8.418924,50.000093],[8.418568,49.999881],[8.418042,49.999618],[8.417939,49.999557],[8.417866,49.999472],[8.417852,49.999319],[8.417767,49.999303],[8.417671,49.999333],[8.41761,49.999384],[8.417557,49.9995],[8.417589,49.999627]]]},"properties":{"layer":"landuse","sub":"residential","cls":"residential"}},{"type":"Feature","geometry":{"type":"Polygon","coordinates":[[[8.418699,50.000503],[8.418529,50.000389],[8.418157,50.000619],[8.418327,50.000733],[8.418699,50.000503]]]},"properties":{"layer":"landuse","sub":"recreation","cls":"pitch"}},{"type":"Feature","geometry":{"type":"Polygon","coordinates":[[[8.418327,50.000733],[8.418495,50.000845],[8.418868,50.000615],[8.418699,50.000503],[8.418327,50.000733]]]},"properties":{"layer":"landuse","sub":"recreation","cls":"pitch"}},{"type":"Feature","geometry":{"type":"Polygon","coordinates":[[[8.420406,50.0002],[8.419591,50.000696],[8.420144,50.001072],[8.420959,50.000576],[8.420406,50.0002]]]},"properties":{"layer":"landuse","sub":"recreation","cls":"pitch"}},{"type":"Feature","geometry":{"type":"Polygon","coordinates":[[[8.421011,50.000561],[8.422022,49.999945],[8.421451,49.999557],[8.420439,50.000174],[8.421011,50.000561]]]},"properties":{"layer":"landuse","sub":"recreation","cls":"pitch"}},{"type":"Feature","geometry":{"type":"Polygon","coordinates":[[[8.417866,49.999472],[8.417939,49.999557],[8.418042,49.999618],[8.418568,49.999881],[8.418924,50.000093],[8.419175,50.000273],[8.419308,50.000317],[8.419439,50.000313],[8.419604,50.000246],[8.419642,50.000159],[8.419737,50.000059],[8.419879,49.999933],[8.420701,49.999405],[8.42083,49.999278],[8.420844,49.999193],[8.420793,49.999094],[8.420724,49.999051],[8.420442,49.998933],[8.419533,49.998393],[8.419338,49.998393],[8.417852,49.999319],[8.417866,49.999472]]]},"properties":{"layer":"landuse","sub":"park","cls":"park"}},{"type":"Feature","geometry":{"type":"Polygon","coordinates":[[[8.419071,49.999351],[8.419315,49.999497],[8.419484,49.999375],[8.419623,49.999274],[8.419656,49.99925],[8.419337,49.99905],[8.419241,49.999111],[8.419258,49.999122],[8.419222,49.999145],[8.41919,49.999165],[8.419265,49.999214],[8.419057,49.999343],[8.419071,49.999351]]]},"properties":{"layer":"landuse","sub":"pedestrian","cls":"pedestrian"}},{"type":"Feature","geometry":{"type":"Polygon","coordinates":[[[8.419877,49.998274],[8.419734,49.99842],[8.419804,49.998464],[8.419838,49.998485],[8.420133,49.99867],[8.420165,49.998641],[8.420586,49.998251],[8.420121,49.998073],[8.420086,49.99806],[8.419877,49.998274]]]},"properties":{"layer":"landuse","sub":"education","cls":"kindergarten"}},{"type":"Feature","geometry":{"type":"Polygon","coordinates":[[[8.416954,49.99751],[8.416813,49.997635],[8.417501,49.997971],[8.417309,49.998141],[8.416876,49.998533],[8.416809,49.998594],[8.417723,49.999209],[8.417767,49.999303],[8.417852,49.999319],[8.419338,49.998393],[8.419533,49.998393],[8.420442,49.998933],[8.420724,49.999051],[8.420793,49.999094],[8.420844,49.999193],[8.42083,49.999278],[8.420701,49.999405],[8.419879,49.999933],[8.419737,50.000059],[8.419642,50.000159],[8.419604,50.000246],[8.419439,50.000313],[8.419308,50.000317],[8.419379,50.000476],[8.419386,50.000552],[8.419556,50.000545],[8.419755,50.000478],[8.419948,50.000359],[8.42031,50.000075],[8.420543,49.999871],[8.421143,49.999472],[8.421277,49.999267],[8.421507,49.999052],[8.421887,49.998689],[8.421452,49.998553],[8.42085,49.998343],[8.420586,49.998251],[8.420086,49.99806],[8.419954,49.997994],[8.419343,49.997746],[8.418819,49.9975],[8.416967,49.9975],[8.416954,49.99751]]]},"properties":{"layer":"landuse","sub":"residential","cls":"residential"}},{"type":"Feature","geometry":{"type":"Polygon","coordinates":[[[8.417439,49.998134],[8.417232,49.998314],[8.417336,49.998381],[8.417378,49.998353],[8.417551,49.998461],[8.417646,49.99852],[8.417603,49.998549],[8.417757,49.998632],[8.417804,49.998636],[8.417843,49.998625],[8.417878,49.998603],[8.417959,49.998655],[8.417999,49.998681],[8.417897,49.998745],[8.418047,49.998814],[8.418028,49.998836],[8.417992,49.998833],[8.417924,49.99879],[8.417587,49.999013],[8.41791,49.999246],[8.418555,49.998836],[8.418696,49.998738],[8.418157,49.998515],[8.418118,49.998549],[8.417992,49.99849],[8.417898,49.998464],[8.4179,49.998391],[8.417869,49.998376],[8.417815,49.998418],[8.417658,49.998336],[8.417522,49.998264],[8.417576,49.998221],[8.417439,49.998134]]]},"properties":{"layer":"landuse","sub":"park","cls":"park"}},{"type":"Feature","geometry":{"type":"Polygon","coordinates":[[[8.417334,49.998672],[8.417191,49.99876],[8.417239,49.998792],[8.417287,49.998824],[8.417353,49.998783],[8.417464,49.998724],[8.417357,49.998656],[8.417334,49.998672]]]},"properties":{"layer":"landuse","sub":"pedestrian","cls":"pedestrian"}},{"type":"Feature","geometry":{"type":"Polygon","coordinates":[[[8.417334,49.998672],[8.41716,49.998566],[8.417186,49.998548],[8.417322,49.998457],[8.417333,49.998452],[8.417188,49.998368],[8.416921,49.998586],[8.417191,49.99876],[8.417334,49.998672]]]},"properties":{"layer":"landuse","sub":"horticulture","cls":"garden"}},{"type":"Feature","geometry":{"type":"Polygon","coordinates":[[[8.417549,49.998675],[8.417626,49.998625],[8.417514,49.998553],[8.41749,49.99857],[8.417408,49.998623],[8.417516,49.998697],[8.417549,49.998675]]]},"properties":{"layer":"landuse","sub":"pedestrian","cls":"pedestrian"}},{"type":"Feature","geometry":{"type":"Polygon","coordinates":[[[8.416527,49.998911],[8.416766,49.998738],[8.416291,49.998468],[8.416052,49.998642],[8.416527,49.998911]]]},"properties":{"layer":"landuse","sub":"recreation","cls":"pitch"}},{"type":"Feature","geometry":{"type":"Polygon","coordinates":[[[8.412581,49.997545],[8.413024,49.997673],[8.413276,49.997804],[8.413531,49.997992],[8.413651,49.99813],[8.413735,49.998201],[8.414051,49.998301],[8.414478,49.998549],[8.414671,49.99862],[8.414732,49.998683],[8.414928,49.998826],[8.415188,49.998939],[8.415304,49.999009],[8.415333,49.99909],[8.415564,49.999256],[8.415824,49.999401],[8.415819,49.999511],[8.415881,49.999547],[8.416083,49.999624],[8.416071,49.999575],[8.416116,49.999559],[8.416307,49.999635],[8.416792,49.999866],[8.416921,49.999997],[8.417358,50.000349],[8.417734,50.000664],[8.417908,50.000763],[8.418136,50.000632],[8.418061,50.000581],[8.418056,50.000538],[8.418292,50.000408],[8.418361,50.000419],[8.418463,50.000341],[8.418455,50.000265],[8.418418,50.000189],[8.418104,50.000046],[8.418112,49.999976],[8.417726,49.999745],[8.417589,49.999627],[8.417557,49.9995],[8.41761,49.999384],[8.417671,49.999333],[8.417767,49.999303],[8.417723,49.999209],[8.416809,49.998594],[8.416728,49.998539],[8.415982,49.998114],[8.415591,49.997936],[8.414371,49.9975],[8.412351,49.9975],[8.412581,49.997545]]]},"properties":{"layer":"landuse","sub":"park","cls":"park"}},{"type":"Feature","geometry":{"type":"Polygon","coordinates":[[[8.416666,49.997847],[8.416643,49.997652],[8.416504,49.997769],[8.416513,49.997781],[8.416586,49.99784],[8.416631,49.997844],[8.416639,49.997852],[8.416666,49.997847]]]},"properties":{"layer":"landuse","sub":"horticulture","cls":"flowerbed"}},{"type":"Feature","geometry":{"type":"Polygon","coordinates":[[[8.417708,49.997769],[8.418015,49.9975],[8.417118,49.9975],[8.417708,49.997769]]]},"properties":{"layer":"landuse","sub":"education","cls":"kindergarten"}},{"type":"Feature","geometry":{"type":"Polygon","coordinates":[[[8.415605,49.997856],[8.416047,49.99804],[8.416876,49.998533],[8.417309,49.998141],[8.417501,49.997971],[8.416813,49.997635],[8.416968,49.9975],[8.41459,49.9975],[8.415605,49.997856]]]},"properties":{"layer":"landuse","sub":"park","cls":"park"}},{"type":"Feature","geometry":{"type":"Polygon","coordinates":[[[8.421418,49.998419],[8.421747,49.998536],[8.422175,49.998646],[8.422247,49.99841],[8.421274,49.99835],[8.421273,49.998363],[8.421418,49.998419]]]},"properties":{"layer":"landuse","sub":"park","cls":"park"}},{"type":"Feature","geometry":{"type":"Polygon","coordinates":[[[8.421836,49.998725],[8.421631,49.998647],[8.421328,49.998916],[8.421516,49.999008],[8.421836,49.998725]]]},"properties":{"layer":"landuse","sub":"horticulture","cls":"vineyard"}},{"type":"Feature","geometry":{"type":"Polygon","coordinates":[[[8.422753,49.998957],[8.421945,49.998771],[8.421452,49.999204],[8.421407,49.999246],[8.421482,49.999277],[8.421609,49.999278],[8.42191,49.999524],[8.422119,49.999754],[8.422136,49.999684],[8.422753,49.998957]]]},"properties":{"layer":"landuse","sub":"park","cls":"park"}},{"type":"Feature","geometry":{"type":"Polygon","coordinates":[[[8.42349,49.999089],[8.422753,49.998957],[8.422136,49.999684],[8.422119,49.999754],[8.422534,50.000067],[8.423368,50.000712],[8.4235,50.000801],[8.4235,49.999093],[8.42349,49.999089]]]},"properties":{"layer":"landuse","sub":"residential","cls":"residential"}},{"type":"Feature","geometry":{"type":"Polygon","coordinates":[[[8.422857,50.006914],[8.421205,50.005569],[8.420621,50.005831],[8.422026,50.006855],[8.423142,50.007624],[8.4235,50.007878],[8.4235,50.007408],[8.422857,50.006914]]]},"properties":{"layer":"landuse","sub":"agriculture","cls":"meadow"}},{"type":"Feature","geometry":{"type":"Polygon","coordinates":[[[8.422772,50.004843],[8.4235,50.005454],[8.4235,50.00455],[8.422772,50.004843]]]},"properties":{"layer":"landuse","sub":"agriculture","cls":"meadow"}},{"type":"Feature","geometry":{"type":"Polygon","coordinates":[[[8.423454,50.00144],[8.422758,50.00179],[8.4235,50.002399],[8.4235,50.001478],[8.423454,50.00144]]]},"properties":{"layer":"landuse","sub":"recreation","cls":"pitch"}},{"type":"Feature","geometry":{"type":"Polygon","coordinates":[[[8.423149,50.001371],[8.422902,50.001159],[8.422307,50.001445],[8.422553,50.001657],[8.423149,50.001371]]]},"properties":{"layer":"landuse","sub":"recreation","cls":"pitch"}},{"type":"Feature","geometry":{"type":"Polygon","coordinates":[[[8.422561,50.000925],[8.422547,50.000934],[8.422539,50.000946],[8.422536,50.000959],[8.422541,50.000971],[8.42255,50.000982],[8.422565,50.000991],[8.422585,50.000996],[8.422607,50.000997],[8.422627,50.000993],[8.422645,50.000984],[8.422656,50.000973],[8.422661,50.00096],[8.422659,50.000946],[8.42265,50.000933],[8.422636,50.000924],[8.422618,50.000918],[8.422598,50.000917],[8.422579,50.000919],[8.422561,50.000925]]]},"properties":{"layer":"landuse","sub":"recreation","cls":"pitch"}},{"type":"Feature","geometry":{"type":"Polygon","coordinates":[[[8.420645,50.001427],[8.420661,50.001469],[8.420693,50.001507],[8.420736,50.001565],[8.420789,50.001609],[8.420886,50.001668],[8.421,50.001707],[8.421094,50.001731],[8.421175,50.001744],[8.421271,50.001746],[8.421357,50.001746],[8.421442,50.001738],[8.421534,50.001707],[8.42271,50.001125],[8.422803,50.001039],[8.422833,50.000956],[8.422834,50.000877],[8.422822,50.000792],[8.422786,50.000717],[8.422738,50.000655],[8.422659,50.000581],[8.422594,50.000533],[8.422477,50.000499],[8.422323,50.000474],[8.422195,50.000475],[8.422104,50.000395],[8.420549,50.001179],[8.420629,50.001241],[8.420625,50.001296],[8.420637,50.001373],[8.420645,50.001427]],[[8.421912,50.000598],[8.422033,50.000562],[8.422142,50.000552],[8.422266,50.000553],[8.422374,50.00057],[8.422465,50.000603],[8.422536,50.000644],[8.422609,50.000705],[8.422646,50.000751],[8.422676,50.000812],[8.422688,50.000886],[8.422676,50.000951],[8.422643,50.001023],[8.422561,50.001099],[8.421524,50.001623],[8.421444,50.00165],[8.421329,50.001672],[8.421234,50.001674],[8.421146,50.001664],[8.421073,50.001652],[8.421005,50.001631],[8.420928,50.0016],[8.420874,50.001568],[8.420842,50.001541],[8.420806,50.001504],[8.420763,50.001457],[8.420755,50.001424],[8.42074,50.001355],[8.420748,50.001283],[8.420786,50.00121],[8.420851,50.001137],[8.421912,50.000598]]]},"properties":{"layer":"landuse","sub":"recreation","cls":"track"}},{"type":"Feature","geometry":{"type":"Polygon","coordinates":[[[8.422591,50.001058],[8.422012,50.000577],[8.420842,50.001173],[8.421411,50.00165],[8.422591,50.001058]]]},"properties":{"layer":"landuse","sub":"recreation","cls":"pitch"}},{"type":"Feature","geometry":{"type":"Polygon","coordinates":[[[8.421663,50.00199],[8.42158,50.001808],[8.421177,50.001882],[8.421259,50.002065],[8.421663,50.00199]]]},"properties":{"layer":"landuse","sub":"recreation","cls":"pitch"}},{"type":"Feature","geometry":{"type":"Polygon","coordinates":[[[8.422298,50.00178],[8.421546,50.002157],[8.422436,50.00289],[8.423187,50.002514],[8.422298,50.00178]]]},"properties":{"layer":"landuse","sub":"recreation","cls":"pitch"}},{"type":"Feature","geometry":{"type":"Polygon","coordinates":[[[8.422758,50.003195],[8.422759,50.003391],[8.422824,50.003449],[8.422893,50.003472],[8.422987,50.003455],[8.4231,50.003381],[8.423189,50.003286],[8.4235,50.003087],[8.4235,50.002785],[8.422758,50.003195]]]},"properties":{"layer":"landuse","sub":"residential","cls":"residential"}},{"type":"Feature","geometry":{"type":"Polygon","coordinates":[[[8.422674,50.003145],[8.422533,50.003065],[8.422489,50.003098],[8.422411,50.003113],[8.422529,50.003211],[8.42272,50.003216],[8.422758,50.003195],[8.422674,50.003145]]]},"properties":{"layer":"landuse","sub":"developed","cls":"industrial"}},{"type":"Feature","geometry":{"type":"Polygon","coordinates":[[[8.423436,50.003324],[8.423212,50.003457],[8.422981,50.003594],[8.422945,50.003616],[8.423081,50.003834],[8.423101,50.003864],[8.423171,50.003977],[8.423216,50.004024],[8.4235,50.003849],[8.4235,50.003286],[8.423436,50.003324]]]},"properties":{"layer":"landuse","sub":"developed","cls":"institutional"}},{"type":"Feature","geometry":{"type":"Polygon","coordinates":[[[8.416497,50.004835],[8.416794,50.004537],[8.416321,50.004349],[8.414928,50.003925],[8.414607,50.003834],[8.414325,50.004182],[8.416497,50.004835]]]},"properties":{"layer":"landuse","sub":"horticulture","cls":"allotments"}},{"type":"Feature","geometry":{"type":"Polygon","coordinates":[[[8.418075,50.005472],[8.418452,50.005204],[8.418286,50.0051],[8.418453,50.004993],[8.418257,50.004899],[8.418569,50.004664],[8.418029,50.004176],[8.417549,50.003902],[8.416699,50.004773],[8.417087,50.004928],[8.417178,50.004846],[8.417872,50.005192],[8.41775,50.005281],[8.418075,50.005472]]]},"properties":{"layer":"landuse","sub":"residential","cls":"residential"}},{"type":"Feature","geometry":{"type":"Polygon","coordinates":[[[8.422951,50.003766],[8.42276,50.003485],[8.421513,50.002477],[8.421312,50.002554],[8.420628,50.002631],[8.419823,50.001964],[8.419507,50.001766],[8.418482,50.000978],[8.418442,50.000913],[8.418482,50.000863],[8.418136,50.000632],[8.417908,50.000763],[8.418021,50.000878],[8.418171,50.001023],[8.418121,50.001131],[8.41824,50.001229],[8.418321,50.001201],[8.418423,50.001214],[8.418635,50.001399],[8.418831,50.001532],[8.419257,50.001864],[8.419431,50.002045],[8.419507,50.002116],[8.419442,50.002208],[8.419734,50.002389],[8.419837,50.002354],[8.419973,50.002387],[8.420263,50.002645],[8.420464,50.002828],[8.420612,50.002976],[8.420858,50.00319],[8.421089,50.003338],[8.421263,50.003478],[8.421499,50.003702],[8.421725,50.003955],[8.421875,50.004092],[8.422055,50.004257],[8.422264,50.004416],[8.422403,50.004405],[8.422538,50.004438],[8.422639,50.00448],[8.423224,50.004252],[8.422951,50.003766]]]},"properties":{"layer":"landuse","sub":"agriculture","cls":"meadow"}},{"type":"Feature","geometry":{"type":"Polygon","coordinates":[[[8.420656,50.002601],[8.421223,50.002318],[8.420483,50.001704],[8.419916,50.001987],[8.420656,50.002601]]]},"properties":{"layer":"landuse","sub":"recreation","cls":"pitch"}},{"type":"Feature","geometry":{"type":"Polygon","coordinates":[[[8.420912,50.001341],[8.420834,50.001278],[8.420777,50.001306],[8.420855,50.00137],[8.420912,50.001341]]]},"properties":{"layer":"landuse","sub":"recreation","cls":"pitch"}},{"type":"Feature","geometry":{"type":"Polygon","coordinates":[[[8.420947,50.001267],[8.420869,50.001204],[8.420813,50.001232],[8.420891,50.001296],[8.420947,50.001267]]]},"properties":{"layer":"landuse","sub":"recreation","cls":"pitch"}},{"type":"Feature","geometry":{"type":"Polygon","coordinates":[[[8.419625,50.00182],[8.420054,50.001625],[8.419364,50.001052],[8.419072,50.000918],[8.418702,50.001092],[8.419625,50.00182]]]},"properties":{"layer":"landuse","sub":"recreation","cls":"pitch"}},{"type":"Feature","geometry":{"type":"Polygon","coordinates":[[[8.417478,50.003049],[8.417748,50.002896],[8.417266,50.002545],[8.416995,50.002699],[8.417478,50.003049]]]},"properties":{"layer":"landuse","sub":"recreation","cls":"pitch"}},{"type":"Feature","geometry":{"type":"Polygon","coordinates":[[[8.413249,50.000531],[8.414062,50.000997],[8.414347,50.001121],[8.414513,50.0013],[8.414846,50.001504],[8.414991,50.001649],[8.41545,50.001964],[8.415491,50.001993],[8.417767,50.003598],[8.417485,50.003866],[8.417549,50.003902],[8.418029,50.004176],[8.418569,50.004664],[8.418257,50.004899],[8.418453,50.004993],[8.418615,50.004873],[8.419283,50.005321],[8.418306,50.006081],[8.418944,50.006234],[8.419831,50.005745],[8.420779,50.005285],[8.420535,50.005078],[8.420226,50.004826],[8.419979,50.004593],[8.419483,50.004097],[8.419014,50.003768],[8.418692,50.003516],[8.418287,50.00314],[8.417799,50.002678],[8.4173,50.002255],[8.416262,50.001397],[8.415143,50.000618],[8.414602,50.000231],[8.413692,49.999674],[8.413249,50.000531]]]},"properties":{"layer":"landuse","sub":"agriculture","cls":"meadow"}},{"type":"Feature","geometry":{"type":"Polygon","coordinates":[[[8.404203,50.001584],[8.404261,50.001498],[8.404485,50.001565],[8.404142,50.002202],[8.406512,50.002237],[8.409406,50.003105],[8.411151,50.004232],[8.411323,50.004302],[8.412387,50.00469],[8.41249,50.004536],[8.412553,50.004441],[8.413228,50.004694],[8.413791,50.004872],[8.413895,50.004841],[8.413854,50.004776],[8.414325,50.004182],[8.414607,50.003834],[8.414928,50.003925],[8.416321,50.004349],[8.416794,50.004537],[8.417078,50.004261],[8.417485,50.003866],[8.417767,50.003598],[8.415491,50.001993],[8.41545,50.001964],[8.413962,50.00112],[8.413857,50.001201],[8.413332,50.001595],[8.412069,50.000808],[8.411858,50.00079],[8.41137,50.001408],[8.410764,50.001233],[8.410123,50.001048],[8.410504,50.000458],[8.411372,49.999414],[8.40902,49.998513],[8.407036,49.997995],[8.406834,49.99805],[8.405757,49.99784],[8.403888,49.999882],[8.4035,50.000462],[8.4035,50.001385],[8.404203,50.001584]]]},"properties":{"layer":"landuse","sub":"developed","cls":"industrial"}},{"type":"Feature","geometry":{"type":"Polygon","coordinates":[[[8.409374,50.002507],[8.409374,50.002476],[8.409378,50.002437],[8.409407,50.002358],[8.40939,50.002335],[8.408618,50.002113],[8.408561,50.002105],[8.408512,50.00211],[8.408468,50.002115],[8.408435,50.002133],[8.408419,50.002157],[8.408402,50.002183],[8.408406,50.002212],[8.408419,50.002248],[8.408439,50.002274],[8.408468,50.002301],[8.408512,50.002316],[8.409268,50.002538],[8.40935,50.002562],[8.409378,50.002564],[8.409386,50.002546],[8.409374,50.002507]]]},"properties":{"layer":"landuse","sub":"managed","cls":"grass"}},{"type":"Feature","geometry":{"type":"Polygon","coordinates":[[[8.409392,50.002281],[8.409425,50.002268],[8.40949,50.002049],[8.409478,50.002035],[8.409453,50.00202],[8.408738,50.001923],[8.408693,50.001923],[8.408644,50.001926],[8.408608,50.001939],[8.408571,50.001957],[8.408555,50.001973],[8.408514,50.002022],[8.408522,50.002035],[8.408539,50.002046],[8.408575,50.002051],[8.409364,50.002278],[8.409392,50.002281]]]},"properties":{"layer":"landuse","sub":"managed","cls":"grass"}},{"type":"Feature","geometry":{"type":"Polygon","coordinates":[[[8.410215,50.002161],[8.410212,50.002139],[8.410178,50.002111],[8.410153,50.002096],[8.410113,50.002087],[8.40974,50.002035],[8.409708,50.002035],[8.409676,50.002042],[8.409644,50.002054],[8.409609,50.002073],[8.409596,50.002091],[8.409526,50.002308],[8.409542,50.002327],[8.409571,50.002346],[8.409636,50.002366],[8.410035,50.002478],[8.410076,50.002485],[8.410108,50.002487],[8.410124,50.00247],[8.410129,50.002451],[8.410215,50.002161]]]},"properties":{"layer":"landuse","sub":"managed","cls":"grass"}},{"type":"Feature","geometry":{"type":"Polygon","coordinates":[[[8.409925,50.002723],[8.409979,50.002711],[8.410025,50.002696],[8.410051,50.002665],[8.410068,50.002647],[8.410084,50.002601],[8.410073,50.002578],[8.410057,50.002554],[8.410033,50.002539],[8.410006,50.002528],[8.409644,50.002423],[8.409604,50.00242],[8.409561,50.002428],[8.409534,50.002442],[8.40951,50.002458],[8.409496,50.002482],[8.409494,50.002511],[8.409515,50.002553],[8.409547,50.002584],[8.409566,50.002597],[8.409628,50.002647],[8.40988,50.002725],[8.409925,50.002723]]]},"properties":{"layer":"landuse","sub":"managed","cls":"grass"}},{"type":"Feature","geometry":{"type":"Polygon","coordinates":[[[8.41382,50.00393],[8.412596,50.003525],[8.412022,50.004241],[8.412553,50.004441],[8.413228,50.004694],[8.41382,50.00393]]]},"properties":{"layer":"landuse","sub":"developed","cls":"industrial"}},{"type":"Feature","geometry":{"type":"Polygon","coordinates":[[[8.412326,50.004784],[8.412724,50.004958],[8.412904,50.004677],[8.41249,50.004536],[8.412387,50.00469],[8.412326,50.004784]]]},"properties":{"layer":"landuse","sub":"residential","cls":"residential"}},{"type":"Feature","geometry":{"type":"Polygon","coordinates":[[[8.407484,50.004978],[8.407596,50.005007],[8.407854,50.004721],[8.408127,50.004771],[8.408744,50.003942],[8.408317,50.003677],[8.407484,50.004978]]]},"properties":{"layer":"landuse","sub":"agriculture","cls":"farmland"}},{"type":"Feature","geometry":{"type":"Polygon","coordinates":[[[8.412451,50.005312],[8.410935,50.004789],[8.410924,50.004703],[8.408777,50.003972],[8.408142,50.004799],[8.407872,50.004751],[8.406981,50.005719],[8.410709,50.007285],[8.411015,50.007224],[8.411995,50.006082],[8.412451,50.005312]]]},"properties":{"layer":"landuse","sub":"developed","cls":"industrial"}},{"type":"Feature","geometry":{"type":"Polygon","coordinates":[[[8.412161,50.006216],[8.411151,50.007387],[8.411195,50.007541],[8.412758,50.008172],[8.413942,50.00847],[8.414031,50.008488],[8.415429,50.008792],[8.415195,50.009127],[8.415491,50.00922],[8.4156,50.009088],[8.416265,50.00867],[8.416375,50.008713],[8.416395,50.008687],[8.4167,50.008303],[8.416407,50.008137],[8.416287,50.008069],[8.417161,50.007383],[8.415486,50.006585],[8.415501,50.006439],[8.414518,50.005982],[8.413499,50.005541],[8.412953,50.005317],[8.412161,50.006216]]]},"properties":{"layer":"landuse","sub":"developed","cls":"industrial"}},{"type":"Feature","geometry":{"type":"Polygon","coordinates":[[[8.413337,50.004882],[8.413271,50.004916],[8.413041,50.005172],[8.414198,50.005672],[8.414506,50.005731],[8.414881,50.005798],[8.415009,50.005843],[8.415087,50.00587],[8.415209,50.005913],[8.415378,50.005978],[8.415518,50.006032],[8.415644,50.006077],[8.415709,50.006104],[8.415808,50.006143],[8.41593,50.00619],[8.416033,50.006229],[8.41588,50.006362],[8.415824,50.006409],[8.416562,50.006782],[8.416819,50.006567],[8.416566,50.006439],[8.416767,50.006267],[8.416819,50.006294],[8.416948,50.006359],[8.417021,50.006396],[8.417085,50.006343],[8.417506,50.005988],[8.416342,50.005715],[8.415875,50.005612],[8.415539,50.005514],[8.413482,50.004877],[8.41341,50.004875],[8.413337,50.004882]]]},"properties":{"layer":"landuse","sub":"residential","cls":"residential"}},{"type":"Feature","geometry":{"type":"Polygon","coordinates":[[[8.416027,50.005452],[8.416019,50.005517],[8.416083,50.005561],[8.416325,50.005619],[8.416347,50.005603],[8.416473,50.005486],[8.416138,50.005341],[8.416027,50.005452]]]},"properties":{"layer":"landuse","sub":"residential","cls":"residential"}},{"type":"Feature","geometry":{"type":"Polygon","coordinates":[[[8.419283,50.005321],[8.418615,50.004873],[8.418453,50.004993],[8.418286,50.0051],[8.418452,50.005204],[8.418075,50.005472],[8.41775,50.005281],[8.417872,50.005192],[8.417178,50.004846],[8.417087,50.004928],[8.416699,50.004773],[8.416515,50.004958],[8.416138,50.005341],[8.416473,50.005486],[8.416347,50.005603],[8.416325,50.005619],[8.41731,50.005847],[8.417555,50.005901],[8.418145,50.006042],[8.418315,50.006077],[8.419283,50.005321]]]},"properties":{"layer":"landuse","sub":"developed","cls":"industrial"}},{"type":"Feature","geometry":{"type":"Polygon","coordinates":[[[8.420516,50.006667],[8.420593,50.006601],[8.420392,50.006505],[8.420316,50.006571],[8.420516,50.006667]]]},"properties":{"layer":"landuse","sub":"recreation","cls":"pitch"}},{"type":"Feature","geometry":{"type":"Polygon","coordinates":[[[8.42081,50.00661],[8.421147,50.006401],[8.420781,50.006157],[8.420444,50.006365],[8.42081,50.00661]]]},"properties":{"layer":"landuse","sub":"recreation","cls":"pitch"}},{"type":"Feature","geometry":{"type":"Polygon","coordinates":[[[8.421234,50.006915],[8.421565,50.006723],[8.421175,50.006445],[8.420844,50.006637],[8.421234,50.006915]]]},"properties":{"layer":"landuse","sub":"recreation","cls":"pitch"}},{"type":"Feature","geometry":{"type":"Polygon","coordinates":[[[8.418967,50.007165],[8.418818,50.007089],[8.418481,50.007362],[8.418631,50.007438],[8.418967,50.007165]]]},"properties":{"layer":"landuse","sub":"recreation","cls":"pitch"}},{"type":"Feature","geometry":{"type":"Polygon","coordinates":[[[8.417094,50.007033],[8.418215,50.006156],[8.417801,50.006058],[8.417506,50.005988],[8.417085,50.006343],[8.417021,50.006396],[8.416948,50.006359],[8.416819,50.006294],[8.416767,50.006267],[8.416566,50.006439],[8.416819,50.006567],[8.416562,50.006782],[8.417094,50.007033]]]},"properties":{"layer":"landuse","sub":"developed","cls":"industrial"}},{"type":"Feature","geometry":{"type":"Polygon","coordinates":[[[8.416026,50.008485],[8.416395,50.008687],[8.4167,50.008303],[8.416407,50.008137],[8.41637,50.008166],[8.416306,50.008138],[8.415995,50.008403],[8.416026,50.008485]]]},"properties":{"layer":"landuse","sub":"developed","cls":"industrial"}},{"type":"Feature","geometry":{"type":"Polygon","coordinates":[[[8.418542,50.007556],[8.419669,50.008162],[8.420274,50.007696],[8.419141,50.007086],[8.418542,50.007556]]]},"properties":{"layer":"landuse","sub":"recreation","cls":"pitch"}},{"type":"Feature","geometry":{"type":"Polygon","coordinates":[[[8.419712,50.008226],[8.419822,50.008235],[8.419935,50.00822],[8.420034,50.008178],[8.420361,50.007927],[8.420385,50.007905],[8.420412,50.007843],[8.420401,50.007763],[8.42031,50.007667],[8.419184,50.007067],[8.419123,50.007043],[8.419002,50.007033],[8.41889,50.007043],[8.418791,50.007088],[8.418458,50.007355],[8.418426,50.007412],[8.418423,50.007479],[8.418448,50.007536],[8.418496,50.007591],[8.419627,50.008201],[8.419712,50.008226]]]},"properties":{"layer":"landuse","sub":"recreation","cls":"track"}},{"type":"Feature","geometry":{"type":"Polygon","coordinates":[[[8.420388,50.00781],[8.420319,50.007774],[8.419914,50.008086],[8.419981,50.008121],[8.420388,50.00781]]]},"properties":{"layer":"landuse","sub":"recreation","cls":"track"}},{"type":"Feature","geometry":{"type":"Polygon","coordinates":[[[8.419825,50.008146],[8.419911,50.008192],[8.419993,50.008128],[8.419981,50.008121],[8.419914,50.008086],[8.419906,50.008082],[8.419825,50.008146]]]},"properties":{"layer":"landuse","sub":"recreation","cls":"pitch"}},{"type":"Feature","geometry":{"type":"Polygon","coordinates":[[[8.420572,50.00875],[8.421619,50.008147],[8.420976,50.007686],[8.419929,50.008289],[8.420572,50.00875]]]},"properties":{"layer":"landuse","sub":"recreation","cls":"pitch"}},{"type":"Feature","geometry":{"type":"Polygon","coordinates":[[[8.418109,50.007984],[8.417943,50.007816],[8.417881,50.007933],[8.417875,50.008107],[8.417928,50.008254],[8.418031,50.008416],[8.418178,50.008509],[8.41849,50.008647],[8.418833,50.008876],[8.419039,50.009022],[8.419161,50.009076],[8.419286,50.009085],[8.419523,50.009042],[8.419876,50.008938],[8.41937,50.008667],[8.418877,50.008412],[8.418496,50.008212],[8.418471,50.008021],[8.418462,50.00799],[8.41802,50.007754],[8.417959,50.007762],[8.41797,50.007784],[8.418228,50.007923],[8.418321,50.007991],[8.418285,50.008058],[8.418109,50.007984]]]},"properties":{"layer":"landuse","sub":"managed","cls":"grass"}},{"type":"Feature","geometry":{"type":"Polygon","coordinates":[[[8.413058,50.008961],[8.413109,50.009018],[8.413474,50.009267],[8.413621,50.009072],[8.413633,50.009006],[8.413619,50.008933],[8.413558,50.008869],[8.41309,50.008649],[8.412835,50.00854],[8.413058,50.008961]]]},"properties":{"layer":"landuse","sub":"agriculture","cls":"meadow"}},{"type":"Feature","geometry":{"type":"Polygon","coordinates":[[[8.412835,50.00854],[8.411179,50.007805],[8.410967,50.007804],[8.410751,50.007749],[8.410664,50.007698],[8.410656,50.007635],[8.410551,50.007573],[8.410488,50.007494],[8.410288,50.007404],[8.408226,50.006518],[8.407947,50.006384],[8.408053,50.007147],[8.40809,50.007352],[8.409706,50.007269],[8.410079,50.008193],[8.408352,50.008439],[8.408625,50.009189],[8.408761,50.009421],[8.410885,50.008978],[8.411129,50.00949],[8.413058,50.008961],[8.412835,50.00854]]]},"properties":{"layer":"landuse","sub":"agriculture","cls":"farmland"}},{"type":"Feature","geometry":{"type":"Polygon","coordinates":[[[8.410079,50.008193],[8.409706,50.007269],[8.40809,50.007352],[8.408179,50.007865],[8.408247,50.008139],[8.408352,50.008439],[8.410079,50.008193]]]},"properties":{"layer":"landuse","sub":"agriculture","cls":"meadow"}},{"type":"Feature","geometry":{"type":"Polygon","coordinates":[[[8.40726,50.010285],[8.407265,50.010359],[8.407337,50.010365],[8.408904,50.010134],[8.408976,50.010084],[8.408761,50.009584],[8.408144,50.009661],[8.408099,50.009608],[8.407096,50.009723],[8.40726,50.010285]]]},"properties":{"layer":"landuse","sub":"agriculture","cls":"farmland"}},{"type":"Feature","geometry":{"type":"Polygon","coordinates":[[[8.407801,50.010384],[8.409024,50.010202],[8.409006,50.010157],[8.408982,50.010147],[8.407296,50.01041],[8.407234,50.010426],[8.407214,50.010456],[8.407211,50.0105],[8.407801,50.010384]]]},"properties":{"layer":"landuse","sub":"managed","cls":"grass"}},{"type":"Feature","geometry":{"type":"Polygon","coordinates":[[[8.412322,50.011846],[8.413384,50.011595],[8.413867,50.011481],[8.414463,50.011306],[8.414668,50.01105],[8.415332,50.010275],[8.41528,50.010233],[8.415129,50.010278],[8.414931,50.010312],[8.414794,50.01032],[8.414522,50.010302],[8.414364,50.010278],[8.414181,50.010227],[8.413718,50.009976],[8.413599,50.009898],[8.413492,50.009812],[8.413423,50.009729],[8.41339,50.009643],[8.413375,50.009529],[8.413391,50.009432],[8.413423,50.009352],[8.413474,50.009267],[8.413109,50.009018],[8.413058,50.008961],[8.411129,50.00949],[8.410885,50.008978],[8.408761,50.009421],[8.409005,50.010007],[8.409158,50.010365],[8.409279,50.010713],[8.40933,50.010943],[8.40937,50.011203],[8.409456,50.011444],[8.409617,50.011722],[8.409831,50.012],[8.411735,50.012],[8.412322,50.011846]]]},"properties":{"layer":"landuse","sub":"agriculture","cls":"farmland"}},{"type":"Feature","geometry":{"type":"Polygon","coordinates":[[[8.40951,50.011657],[8.409443,50.011571],[8.407818,50.01198],[8.407838,50.012],[8.40808,50.012],[8.40951,50.011657]]]},"properties":{"layer":"landuse","sub":"horticulture","cls":"orchard"}},{"type":"Feature","geometry":{"type":"Polygon","coordinates":[[[8.415042,50.010695],[8.416176,50.010363],[8.417146,50.010079],[8.418447,50.00975],[8.418476,50.009643],[8.418093,50.009697],[8.417736,50.00975],[8.417397,50.009773],[8.416989,50.009779],[8.416638,50.00977],[8.415437,50.010234],[8.415042,50.010695]]]},"properties":{"layer":"landuse","sub":"agriculture","cls":"farmland"}},{"type":"Feature","geometry":{"type":"Polygon","coordinates":[[[8.416638,50.00977],[8.416386,50.009754],[8.416118,50.009714],[8.416032,50.009714],[8.415949,50.009742],[8.415874,50.009801],[8.415437,50.010234],[8.416638,50.00977]]]},"properties":{"layer":"landuse","sub":"agriculture","cls":"meadow"}},{"type":"Feature","geometry":{"type":"Polygon","coordinates":[[[8.415328,50.009483],[8.415009,50.009384],[8.414502,50.010066],[8.414689,50.010104],[8.414822,50.010127],[8.415328,50.009483]]]},"properties":{"layer":"landuse","sub":"managed","cls":"grass"}},{"type":"Feature","geometry":{"type":"Polygon","coordinates":[[[8.416233,50.01045],[8.417514,50.010085],[8.41756,50.010148],[8.41874,50.009738],[8.418704,50.009694],[8.418658,50.009667],[8.418621,50.009656],[8.418561,50.009646],[8.418476,50.009643],[8.418447,50.00975],[8.417146,50.010079],[8.416176,50.010363],[8.416233,50.01045]]]},"properties":{"layer":"landuse","sub":"agriculture","cls":"meadow"}},{"type":"Feature","geometry":{"type":"Polygon","coordinates":[[[8.423386,50.010935],[8.422557,50.010391],[8.421943,50.009976],[8.421482,50.009679],[8.421456,50.009656],[8.420462,50.00905],[8.420452,50.009053],[8.42043,50.009059],[8.420411,50.009065],[8.41948,50.009336],[8.419028,50.009582],[8.41874,50.009738],[8.41756,50.010148],[8.417514,50.010085],[8.416233,50.01045],[8.415097,50.010774],[8.414668,50.01105],[8.414463,50.011306],[8.414422,50.011358],[8.414022,50.011834],[8.413901,50.012],[8.4235,50.012],[8.4235,50.011026],[8.423386,50.010935]]]},"properties":{"layer":"landuse","sub":"residential","cls":"residential"}},{"type":"Feature","geometry":{"type":"Polygon","coordinates":[[[8.42316,50.007742],[8.423121,50.007715],[8.421783,50.006821],[8.421381,50.007076],[8.421943,50.007421],[8.421739,50.007557],[8.422287,50.008131],[8.420738,50.009053],[8.422065,50.009914],[8.423419,50.010835],[8.4235,50.010889],[8.4235,50.007968],[8.42316,50.007742]]]},"properties":{"layer":"landuse","sub":"residential","cls":"residential"}},{"type":"Feature","geometry":{"type":"Polygon","coordinates":[[[8.414022,50.011834],[8.414422,50.011358],[8.413905,50.011502],[8.412366,50.011881],[8.411912,50.012],[8.413901,50.012],[8.414022,50.011834]]]},"properties":{"layer":"landuse","sub":"agriculture","cls":"farmland"}},{"type":"Feature","geometry":{"type":"Polygon","coordinates":[[[8.422059,50.009915],[8.42062,50.009002],[8.42057,50.009017],[8.420514,50.009034],[8.420462,50.00905],[8.421456,50.009656],[8.421482,50.009679],[8.421953,50.009973],[8.423386,50.010935],[8.4235,50.011026],[8.4235,50.010898],[8.422059,50.009915]]]},"properties":{"layer":"landuse","sub":"transportation","cls":"railway"}},{"type":"Feature","geometry":{"type":"Polygon","coordinates":[[[8.4035,49.9975],[8.4035,50.012],[8.4235,50.012],[8.4235,49.9975],[8.4035,49.9975]]]},"properties":{"layer":"cover","sub":"crop"}},{"type":"Feature","geometry":{"type":"MultiPolygon","coordinates":[[[[8.4235,50.007558],[8.422993,50.007232],[8.422103,50.006884],[8.421692,50.006892],[8.421488,50.007066],[8.421008,50.006996],[8.420511,50.006574],[8.420017,50.006664],[8.419869,50.006457],[8.421329,50.005627],[8.422826,50.005185],[8.422997,50.004963],[8.423493,50.004851],[8.4235,50.003429],[8.423192,50.003442],[8.423165,50.004034],[8.421007,50.004899],[8.419096,50.005934],[8.418987,50.005802],[8.419283,50.005336],[8.419094,50.005074],[8.418647,50.004968],[8.418078,50.005184],[8.41737,50.004938],[8.41764,50.004481],[8.417941,50.004308],[8.417767,50.003905],[8.417793,50.003262],[8.414475,50.001059],[8.413363,50.001299],[8.412558,50.000809],[8.411919,50.0008],[8.411503,50.001204],[8.411157,50.001203],[8.410719,50.000916],[8.410734,50.000402],[8.411426,49.999678],[8.411416,49.999222],[8.409122,49.998221],[8.407906,49.998074],[8.407074,49.999318],[8.406447,49.999716],[8.406041,49.99945],[8.406488,49.99921],[8.406935,49.99841],[8.406793,49.997845],[8.405603,49.997551],[8.404942,49.9975],[8.403712,49.9975],[8.4035,49.998241],[8.4035,49.998379],[8.403876,49.998678],[8.40388,49.99932],[8.403617,50.000015],[8.4035,50.000122],[8.4035,50.002363],[8.403903,50.00237],[8.404775,50.002775],[8.407157,50.003288],[8.407757,50.003685],[8.4085,50.003884],[8.408401,50.004408],[8.407806,50.004584],[8.406679,50.00554],[8.406679,50.00596],[8.407407,50.006038],[8.408912,50.006623],[8.409115,50.006738],[8.409239,50.007093],[8.413505,50.00895],[8.413304,50.009294],[8.413324,50.009761],[8.4138,50.009943],[8.414174,50.010351],[8.414475,50.010308],[8.414532,50.00998],[8.414326,50.009732],[8.41395,50.009723],[8.41395,50.009447],[8.414199,50.009186],[8.414065,50.008617],[8.4145,50.008444],[8.414581,50.007871],[8.41495,50.008077],[8.414899,50.008493],[8.415387,50.009247],[8.41538,50.009605],[8.414971,50.010044],[8.415147,50.010366],[8.416141,50.009808],[8.417399,50.008219],[8.41796,50.008321],[8.418046,50.00783],[8.418273,50.007689],[8.420055,50.008627],[8.419687,50.009168],[8.419326,50.008899],[8.41845,50.008633],[8.418261,50.008324],[8.418007,50.008315],[8.417887,50.008622],[8.418217,50.008867],[8.418151,50.009241],[8.416822,50.009407],[8.416718,50.009686],[8.416907,50.010039],[8.415471,50.010456],[8.414942,50.010859],[8.41425,50.011639],[8.41421,50.012],[8.4235,50.012],[8.4235,50.007558]]],[[[8.417027,49.99757],[8.417084,49.997861],[8.417507,49.998351],[8.417905,49.998267],[8.418109,49.998441],[8.418483,49.998369],[8.418961,49.998613],[8.419398,49.998513],[8.420169,49.9987],[8.420391,49.998641],[8.420494,49.998384],[8.42072,49.998367],[8.42158,49.998628],[8.421757,49.998935],[8.422416,49.999043],[8.422137,49.999789],[8.42252,49.999974],[8.422711,50.00029],[8.422142,50.000525],[8.422434,50.001078],[8.422221,50.001378],[8.422301,50.001713],[8.422167,50.002194],[8.422525,50.002441],[8.422907,50.002382],[8.423056,50.002666],[8.423353,50.002699],[8.4235,50.002578],[8.4235,49.9975],[8.416913,49.9975],[8.417027,49.99757]]],[[[8.412081,49.997617],[8.412165,49.9975],[8.411693,49.9975],[8.412081,49.997617]]]]},"properties":{"layer":"cover","sub":"urban"}},{"type":"Feature","geometry":{"type":"MultiPolygon","coordinates":[[[[8.405602,49.99764],[8.405806,49.998],[8.406103,49.998032],[8.407391,49.997558],[8.407396,49.9975],[8.405325,49.9975],[8.405602,49.99764]]],[[[8.404406,49.99776],[8.404831,49.997783],[8.405173,49.9975],[8.404255,49.9975],[8.404406,49.99776]]],[[[8.404166,50.000028],[8.404363,49.999206],[8.40426,49.998572],[8.403739,49.99795],[8.403777,49.9975],[8.4035,49.9975],[8.4035,50.000747],[8.404166,50.000028]]],[[[8.40521,50.011988],[8.405589,50.011541],[8.406353,50.011616],[8.406532,50.011436],[8.406279,50.008794],[8.406038,50.008407],[8.405851,50.007424],[8.405371,50.006659],[8.405453,50.006475],[8.406218,50.006314],[8.406232,50.006743],[8.406556,50.007083],[8.406384,50.007436],[8.406719,50.008529],[8.406725,50.009308],[8.407123,50.009821],[8.408372,50.009863],[8.408866,50.00952],[8.408793,50.009262],[8.408126,50.008889],[8.408117,50.007948],[8.408282,50.007397],[8.407891,50.007059],[8.407975,50.005859],[8.406647,50.005718],[8.406446,50.00596],[8.406261,50.00574],[8.406002,50.005717],[8.405413,50.005873],[8.405282,50.005703],[8.405446,50.005211],[8.40521,50.004929],[8.403574,50.004703],[8.4035,50.004657],[8.4035,50.010935],[8.403602,50.010973],[8.40385,50.011847],[8.403623,50.012],[8.40521,50.011988]]]]},"properties":{"layer":"cover","sub":"forest"}},{"type":"Feature","geometry":{"type":"MultiPolygon","coordinates":[[[[8.404018,50.010757],[8.403576,50.010149],[8.4035,50.010176],[8.4035,50.012],[8.404361,50.012],[8.404018,50.010757]]],[[[8.405286,50.011897],[8.406344,50.011676],[8.406391,50.011275],[8.406186,50.011134],[8.405359,50.011142],[8.40505,50.011633],[8.404656,50.011657],[8.404362,50.012],[8.405372,50.012],[8.405286,50.011897]]]]},"properties":{"layer":"cover","sub":"shrub"}},{"type":"Feature","geometry":{"type":"Polygon","coordinates":[[[8.414509,50.011682],[8.415583,50.010709],[8.416456,50.010613],[8.418178,50.010093],[8.418238,50.009623],[8.416897,50.009468],[8.414814,50.010048],[8.414426,50.009962],[8.413714,50.00951],[8.413613,50.008628],[8.413444,50.008417],[8.408831,50.006383],[8.40809,50.006565],[8.407887,50.006794],[8.407907,50.007344],[8.408347,50.007556],[8.408556,50.007924],[8.408218,50.008314],[8.408376,50.00933],[8.408137,50.009466],[8.407426,50.009462],[8.40712,50.00907],[8.407113,50.008294],[8.406872,50.007991],[8.406851,50.007507],[8.406538,50.007229],[8.406699,50.00677],[8.406666,50.005806],[8.406378,50.005721],[8.405907,50.005962],[8.405174,50.006065],[8.404975,50.006359],[8.404971,50.006872],[8.405466,50.007438],[8.405642,50.008641],[8.405881,50.00902],[8.405884,50.010103],[8.406133,50.0112],[8.405056,50.0115],[8.404892,50.011692],[8.404889,50.012],[8.414261,50.012],[8.414509,50.011682]]]},"properties":{"layer":"cover","sub":"crop"}},{"type":"Feature","geometry":{"type":"Polygon","coordinates":[[[8.415156,50.010407],[8.414429,50.011123],[8.414384,50.011353],[8.414544,50.011529],[8.415094,50.01151],[8.415711,50.010885],[8.416308,50.010641],[8.416343,50.010322],[8.415647,50.010218],[8.415156,50.010407]]]},"properties":{"layer":"cover","sub":"forest"}},{"type":"Feature","geometry":{"type":"Polygon","coordinates":[[[8.414636,50.011898],[8.415093,50.011511],[8.415093,50.011239],[8.414586,50.011133],[8.414322,50.01124],[8.413697,50.012],[8.414619,50.012],[8.414636,50.011898]]]},"properties":{"layer":"cover","sub":"shrub"}},{"type":"Feature","geometry":{"type":"Polygon","coordinates":[[[8.403628,50.005196],[8.404831,50.0053],[8.404809,50.005891],[8.405156,50.00626],[8.406088,50.006188],[8.406664,50.006367],[8.406867,50.006117],[8.40755,50.0062],[8.407482,50.006788],[8.40629,50.006595],[8.406059,50.007025],[8.406059,50.007391],[8.406456,50.00775],[8.406475,50.008225],[8.406717,50.008367],[8.40679,50.008738],[8.407558,50.008775],[8.407699,50.008483],[8.407775,50.009308],[8.408725,50.009608],[8.408866,50.00923],[8.40862,50.008614],[8.408935,50.008326],[8.409032,50.00773],[8.408483,50.00699],[8.408713,50.006866],[8.409192,50.007108],[8.409467,50.007065],[8.409639,50.007333],[8.410064,50.007449],[8.410321,50.007377],[8.410358,50.007109],[8.410141,50.006892],[8.409533,50.006851],[8.409518,50.006507],[8.409344,50.006324],[8.408558,50.005975],[8.407864,50.005883],[8.407366,50.005588],[8.407389,50.005403],[8.407793,50.005238],[8.408068,50.004799],[8.408655,50.004627],[8.408712,50.004328],[8.409025,50.004058],[8.408975,50.003609],[8.407331,50.00305],[8.407095,50.003123],[8.407059,50.003559],[8.406936,50.003548],[8.406231,50.003199],[8.406488,50.003127],[8.406391,50.002725],[8.405924,50.002649],[8.405773,50.002968],[8.405655,50.002623],[8.405326,50.002399],[8.404122,50.001971],[8.4035,50.001899],[8.4035,50.005138],[8.403628,50.005196]],[[8.406088,50.003116],[8.406101,50.003133],[8.406067,50.003117],[8.406088,50.003116]],[[8.407529,50.004122],[8.407315,50.0037],[8.408004,50.003783],[8.407633,50.004633],[8.407455,50.004636],[8.407201,50.004409],[8.407191,50.004274],[8.407529,50.004122]],[[8.407007,50.008011],[8.407136,50.007384],[8.407753,50.007532],[8.407551,50.008269],[8.40695,50.008133],[8.407007,50.008011]]]},"properties":{"layer":"cover","sub":"shrub"}},{"type":"Feature","geometry":{"type":"Polygon","coordinates":[[[8.405149,50.00259],[8.405167,50.002861],[8.405461,50.003029],[8.405969,50.003026],[8.407544,50.003696],[8.408029,50.003456],[8.407988,50.003207],[8.40766,50.002982],[8.406115,50.002724],[8.405706,50.002471],[8.405149,50.00259]]]},"properties":{"layer":"cover","sub":"forest"}},{"type":"Feature","geometry":{"type":"Polygon","coordinates":[[[8.40359,50.003101],[8.405137,50.003201],[8.405443,50.003363],[8.405384,50.003853],[8.405507,50.004018],[8.406186,50.004116],[8.40659,50.003883],[8.406824,50.004761],[8.407257,50.005101],[8.408391,50.004941],[8.408851,50.004576],[8.408926,50.003989],[8.408243,50.003399],[8.406058,50.002642],[8.405439,50.002632],[8.404289,50.002304],[8.403692,50.002309],[8.4035,50.002545],[8.4035,50.002725],[8.40359,50.003101]]]},"properties":{"layer":"cover","sub":"crop"}},{"type":"Feature","geometry":{"type":"Polygon","coordinates":[[[8.423461,50.001387],[8.423217,50.001723],[8.422044,50.001637],[8.421471,50.002128],[8.421512,50.002377],[8.422211,50.002946],[8.422789,50.002946],[8.423364,50.002617],[8.4235,50.002594],[8.4235,50.001389],[8.423461,50.001387]]]},"properties":{"layer":"cover","sub":"barren"}},{"type":"Feature","geometry":{"type":"Polygon","coordinates":[[[8.413507,49.999482],[8.412968,50.000314],[8.413065,50.00091],[8.413314,50.001169],[8.413262,50.001627],[8.413891,50.001691],[8.414343,50.001344],[8.414333,50.001056],[8.413955,50.000741],[8.414054,50.000289],[8.414639,50.000916],[8.41517,50.001046],[8.416015,50.001633],[8.416125,50.001809],[8.415948,50.001883],[8.415275,50.001559],[8.415059,50.001975],[8.417303,50.003558],[8.417215,50.004322],[8.416887,50.004794],[8.416907,50.005178],[8.417442,50.005525],[8.418378,50.005675],[8.417167,50.006472],[8.417084,50.007194],[8.417768,50.00745],[8.417587,50.007704],[8.417192,50.007775],[8.416191,50.008943],[8.415466,50.008515],[8.415441,50.007942],[8.415225,50.007692],[8.414539,50.007387],[8.413972,50.007417],[8.413723,50.007883],[8.412906,50.00774],[8.412725,50.007942],[8.412718,50.00827],[8.413641,50.008984],[8.413595,50.010043],[8.414275,50.010358],[8.415225,50.010358],[8.415858,50.009807],[8.416314,50.010032],[8.416934,50.009949],[8.416417,50.010222],[8.416507,50.010601],[8.417475,50.010525],[8.417698,50.010276],[8.41821,50.010238],[8.41826,50.009906],[8.417105,50.009823],[8.418261,50.009676],[8.41851,50.009428],[8.41855,50.009079],[8.419018,50.009283],[8.418883,50.009748],[8.419025,50.009975],[8.419493,50.010018],[8.420219,50.009463],[8.420738,50.009293],[8.420768,50.00859],[8.418511,50.007157],[8.418234,50.007133],[8.419101,50.00641],[8.419058,50.006109],[8.418745,50.006033],[8.419594,50.00601],[8.419926,50.005761],[8.419989,50.005225],[8.420891,50.005275],[8.421018,50.004924],[8.41946,50.003429],[8.418849,50.003074],[8.417944,50.002084],[8.414594,49.99974],[8.413956,49.999471],[8.413507,49.999482]]]},"properties":{"layer":"cover","sub":"forest"}},{"type":"Feature","geometry":{"type":"Polygon","coordinates":[[[8.414281,50.001281],[8.415156,50.00201],[8.41634,50.002601],[8.4168,50.002617],[8.416845,50.00296],[8.417781,50.003731],[8.418275,50.004725],[8.418889,50.00525],[8.419532,50.005544],[8.419776,50.005941],[8.41974,50.006261],[8.419973,50.006367],[8.419968,50.006602],[8.419711,50.006554],[8.419559,50.006692],[8.419722,50.007083],[8.420557,50.007033],[8.420609,50.007308],[8.420956,50.007446],[8.421611,50.00725],[8.422083,50.006694],[8.422058,50.006025],[8.420899,50.005467],[8.421185,50.005243],[8.421127,50.004929],[8.420439,50.004882],[8.420152,50.004701],[8.419724,50.004353],[8.419475,50.003859],[8.418647,50.003359],[8.417627,50.002262],[8.417117,50.002133],[8.41671,50.001595],[8.415444,50.000667],[8.414898,50.000531],[8.414725,50.000192],[8.414178,49.99974],[8.413757,49.999732],[8.41349,49.999989],[8.413574,50.000928],[8.414281,50.001281]],[[8.420076,50.005877],[8.420101,50.005867],[8.420067,50.005883],[8.420076,50.005877]]]},"properties":{"layer":"cover","sub":"shrub"}},{"type":"Feature","geometry":{"type":"Polygon","coordinates":[[[8.417804,50.008044],[8.417815,50.00841],[8.418149,50.008839],[8.41814,50.009383],[8.417692,50.009392],[8.417304,50.009628],[8.417359,50.009891],[8.417878,50.010196],[8.418391,50.010058],[8.418399,50.009533],[8.41871,50.009488],[8.418867,50.009149],[8.419436,50.009282],[8.419696,50.009039],[8.419558,50.008525],[8.418428,50.007824],[8.418109,50.007809],[8.417804,50.008044]]]},"properties":{"layer":"cover","sub":"shrub"}},{"type":"Feature","geometry":{"type":"Polygon","coordinates":[[[8.418801,50.00773],[8.418972,50.008083],[8.420257,50.008851],[8.42075,50.008778],[8.420611,50.008334],[8.419002,50.00755],[8.418801,50.00773]]]},"properties":{"layer":"cover","sub":"shrub"}},{"type":"Feature","geometry":{"type":"Polygon","coordinates":[[[8.419475,50.006442],[8.419658,50.006933],[8.420044,50.007113],[8.420341,50.007037],[8.420878,50.007446],[8.421225,50.007441],[8.421363,50.007289],[8.421333,50.007056],[8.420944,50.006667],[8.420496,50.006634],[8.419872,50.006304],[8.419475,50.006442]]]},"properties":{"layer":"cover","sub":"barren"}},{"type":"Feature","geometry":{"type":"Polygon","coordinates":[[[8.422436,50.002548],[8.422022,50.00219],[8.422627,50.002071],[8.422775,50.001525],[8.422493,50.001232],[8.422044,50.001221],[8.421239,50.00149],[8.420892,50.001775],[8.420917,50.002111],[8.421292,50.002423],[8.421424,50.003026],[8.420731,50.002697],[8.419956,50.002054],[8.419637,50.002211],[8.419801,50.002687],[8.421972,50.004583],[8.422294,50.004779],[8.422601,50.0047],[8.422609,50.005141],[8.422938,50.005305],[8.4235,50.005934],[8.4235,50.002233],[8.422436,50.002548]],[[8.423151,50.004468],[8.423265,50.00445],[8.42322,50.004466],[8.423151,50.004468]],[[8.422902,50.00455],[8.422947,50.004534],[8.42301,50.004536],[8.42297,50.004549],[8.422902,50.00455]]]},"properties":{"layer":"cover","sub":"forest"}},{"type":"Feature","geometry":{"type":"Polygon","coordinates":[[[8.42321,50.006512],[8.421528,50.00525],[8.421109,50.005225],[8.42075,50.005472],[8.420732,50.005826],[8.420965,50.006025],[8.42109,50.006268],[8.42147,50.006201],[8.421713,50.006364],[8.421353,50.006859],[8.420982,50.007007],[8.42099,50.007261],[8.421222,50.0075],[8.421999,50.007386],[8.422065,50.00791],[8.422294,50.008113],[8.422725,50.008108],[8.422981,50.007849],[8.423165,50.007873],[8.4235,50.00825],[8.4235,50.006847],[8.42321,50.006512]]]},"properties":{"layer":"cover","sub":"forest"}},{"type":"Feature","geometry":{"type":"Polygon","coordinates":[[[8.413971,49.998211],[8.413975,49.998558],[8.414158,49.998766],[8.415525,49.999525],[8.415956,49.999529],[8.416108,49.999391],[8.416071,49.999123],[8.415694,49.998834],[8.414905,49.998535],[8.414289,49.998054],[8.413971,49.998211]]]},"properties":{"layer":"cover","sub":"forest"}},{"type":"Feature","geometry":{"type":"Polygon","coordinates":[[[8.422842,49.999651],[8.422863,49.998878],[8.422694,49.998667],[8.422089,49.998542],[8.421844,49.99824],[8.420956,49.997971],[8.420294,49.997971],[8.419995,49.998184],[8.417728,49.997792],[8.417517,49.9975],[8.413382,49.9975],[8.41359,49.997601],[8.415741,49.998122],[8.41617,49.998379],[8.416457,49.998738],[8.417214,49.999217],[8.417134,49.999686],[8.41729,49.999905],[8.417845,50.000135],[8.418639,50.000916],[8.419426,50.001214],[8.42009,50.001768],[8.420641,50.001725],[8.421166,50.001111],[8.421287,50.000677],[8.422491,50.000705],[8.422787,50.000879],[8.422859,50.001225],[8.423294,50.001446],[8.4235,50.001446],[8.4235,49.999639],[8.422842,49.999651]]]},"properties":{"layer":"cover","sub":"forest"}},{"type":"Feature","geometry":{"type":"Polygon","coordinates":[[[8.420989,49.99949],[8.419679,50.000457],[8.419642,50.000808],[8.419822,50.00101],[8.420755,50.0009],[8.42127,50.001032],[8.421761,50.000843],[8.421826,50.000374],[8.422108,50.000058],[8.422093,49.999739],[8.421622,49.999387],[8.420989,49.99949]]]},"properties":{"layer":"cover","sub":"urban"}},{"type":"Feature","geometry":{"type":"Polygon","coordinates":[[[8.412139,49.997666],[8.413087,49.997877],[8.413406,49.99826],[8.413921,49.998377],[8.414656,49.998926],[8.415426,49.999214],[8.415873,49.999738],[8.416682,50.000049],[8.417269,50.000473],[8.417373,50.000738],[8.417734,50.000842],[8.418207,50.001405],[8.418513,50.001473],[8.418623,50.001738],[8.421109,50.003441],[8.421694,50.003416],[8.421858,50.003225],[8.421867,50.002732],[8.422122,50.002779],[8.422275,50.002641],[8.422141,50.002192],[8.42159,50.002065],[8.421568,50.001897],[8.422594,50.001593],[8.422867,50.001193],[8.423275,50.001058],[8.423141,50.000525],[8.422578,50.000623],[8.422377,50.000262],[8.42211,50.000217],[8.422101,49.999924],[8.421936,49.999801],[8.421525,49.999942],[8.421309,50.000192],[8.421359,50.000475],[8.421108,50.000609],[8.420956,50.000471],[8.420402,50.000466],[8.420367,50.00036],[8.420666,50.000278],[8.420699,50.000064],[8.42034,49.999899],[8.420217,50.00014],[8.419707,50.000179],[8.419482,50.000424],[8.419467,50.0008],[8.419343,50.000795],[8.418653,50.000444],[8.418111,49.99975],[8.417759,49.999651],[8.417867,49.999086],[8.417725,49.998859],[8.41674,49.99837],[8.416011,49.99774],[8.414975,49.9975],[8.412087,49.9975],[8.412139,49.997666]],[[8.4202,50.001283],[8.420476,50.001191],[8.420444,50.001273],[8.420338,50.00135],[8.4202,50.001283]]]},"properties":{"layer":"cover","sub":"shrub"}},{"type":"Feature","geometry":{"type":"Polygon","coordinates":[[[8.416059,49.999525],[8.416054,49.999872],[8.416378,50.000113],[8.417386,50.0007],[8.417757,50.001101],[8.418268,50.000993],[8.418238,50.000707],[8.4177,50.000383],[8.417543,50.000095],[8.416678,49.99949],[8.416211,49.999387],[8.416059,49.999525]]]},"properties":{"layer":"cover","sub":"forest"}},{"type":"Feature","geometry":{"type":"Polygon","coordinates":[[[8.413554,50.000956],[8.413741,50.001183],[8.414588,50.001617],[8.415239,50.002176],[8.415593,50.002094],[8.415391,50.001525],[8.414261,50.00074],[8.413623,50.000679],[8.413554,50.000956]]]},"properties":{"layer":"cover","sub":"barren"}},{"type":"Feature","geometry":{"type":"Polygon","coordinates":[[[8.407694,49.997597],[8.407407,49.997739],[8.407399,49.998076],[8.407609,49.998275],[8.408628,49.998529],[8.409024,49.998486],[8.409768,49.99879],[8.411008,49.999464],[8.411211,49.999779],[8.41193,49.999454],[8.412641,49.999441],[8.412779,49.999289],[8.412543,49.998679],[8.411326,49.997982],[8.410597,49.997963],[8.409054,49.9975],[8.407725,49.9975],[8.407694,49.997597]]]},"properties":{"layer":"cover","sub":"forest"}},{"type":"Feature","geometry":{"type":"Polygon","coordinates":[[[8.407,49.99814],[8.406639,49.998084],[8.405657,49.999489],[8.405667,49.999778],[8.406211,50.000113],[8.407028,50.0],[8.407926,49.998928],[8.40801,49.998156],[8.40752,49.997968],[8.407,49.99814]]]},"properties":{"layer":"cover","sub":"crop"}},{"type":"Feature","geometry":{"type":"Polygon","coordinates":[[[8.403525,49.998558],[8.40398,49.998866],[8.404282,49.998686],[8.40426,49.998406],[8.404026,49.998219],[8.404041,49.997927],[8.404376,49.997867],[8.406503,49.998213],[8.406134,49.99873],[8.406378,49.999113],[8.406641,49.999058],[8.406802,49.998693],[8.406924,49.999185],[8.407725,49.999108],[8.408197,49.99848],[8.409171,49.9987],[8.410378,49.999279],[8.41066,49.999268],[8.410782,49.999103],[8.410725,49.998859],[8.409993,49.998315],[8.409495,49.9983],[8.409122,49.997971],[8.40875,49.998069],[8.408244,49.997951],[8.408153,49.9975],[8.4035,49.9975],[8.4035,49.99851],[8.403525,49.998558]]]},"properties":{"layer":"cover","sub":"shrub"}},{"type":"Feature","geometry":{"type":"Polygon","coordinates":[[[8.421738,50.007557],[8.42194,50.007422],[8.421794,50.007331],[8.421726,50.007376],[8.421272,50.007095],[8.421138,50.007185],[8.421738,50.007557]]]},"properties":{"layer":"infra","cls":"parking"}},{"type":"Feature","geometry":{"type":"Polygon","coordinates":[[[8.421656,50.007916],[8.421756,50.007861],[8.421328,50.007494],[8.421304,50.007475],[8.421254,50.007438],[8.420816,50.007165],[8.420743,50.007221],[8.421656,50.007916]]]},"properties":{"layer":"infra","cls":"parking"}},{"type":"Feature","geometry":{"type":"Polygon","coordinates":[[[8.423469,50.004173],[8.423446,50.004144],[8.423193,50.004291],[8.422957,50.004395],[8.422076,50.004748],[8.421218,50.005131],[8.420586,50.005415],[8.419985,50.005705],[8.419422,50.005994],[8.419063,50.006198],[8.418783,50.006357],[8.418829,50.00638],[8.418914,50.006441],[8.419002,50.006507],[8.419094,50.006579],[8.419476,50.006353],[8.41991,50.006115],[8.420581,50.005788],[8.421727,50.005259],[8.423354,50.004588],[8.4235,50.004532],[8.4235,50.004214],[8.423469,50.004173]]]},"properties":{"layer":"infra","cls":"bridge"}},{"type":"Feature","geometry":{"type":"Polygon","coordinates":[[[8.417662,50.00593],[8.417896,50.005992],[8.418129,50.006054],[8.418145,50.006042],[8.41847,50.005795],[8.418486,50.005783],[8.418015,50.005515],[8.417555,50.005901],[8.417662,50.00593]]]},"properties":{"layer":"infra","cls":"parking"}},{"type":"Feature","geometry":{"type":"Polygon","coordinates":[[[8.416799,50.005669],[8.416849,50.005624],[8.416676,50.005544],[8.416626,50.005589],[8.416799,50.005669]]]},"properties":{"layer":"infra","cls":"parking"}},{"type":"Feature","geometry":{"type":"Polygon","coordinates":[[[8.416441,50.005629],[8.416595,50.005488],[8.416511,50.00545],[8.416473,50.005486],[8.416347,50.005603],[8.416441,50.005629]]]},"properties":{"layer":"infra","cls":"parking"}},{"type":"Feature","geometry":{"type":"Polygon","coordinates":[[[8.41741,50.007564],[8.417422,50.00757],[8.417505,50.007612],[8.417603,50.007662],[8.417717,50.00772],[8.417768,50.007746],[8.41785,50.007611],[8.417964,50.007481],[8.417914,50.007456],[8.417872,50.007434],[8.417748,50.00737],[8.417669,50.007329],[8.417644,50.007317],[8.41741,50.007564]]]},"properties":{"layer":"infra","cls":"bridge"}},{"type":"Feature","geometry":{"type":"Polygon","coordinates":[[[8.416185,50.007017],[8.416073,50.007151],[8.41589,50.007406],[8.416365,50.007555],[8.41599,50.008047],[8.416042,50.008058],[8.416217,50.008113],[8.416706,50.007715],[8.41678,50.007627],[8.41656,50.00756],[8.416656,50.007417],[8.41698,50.007529],[8.417091,50.007387],[8.416697,50.007261],[8.416724,50.007218],[8.41626,50.007041],[8.416185,50.007017]]]},"properties":{"layer":"infra","cls":"parking"}},{"type":"Feature","geometry":{"type":"Polygon","coordinates":[[[8.42036,50.008837],[8.4203,50.008849],[8.420229,50.008862],[8.420172,50.008873],[8.420462,50.00905],[8.420514,50.009034],[8.42057,50.009017],[8.42062,50.009002],[8.42036,50.008837]]]},"properties":{"layer":"infra","cls":"bridge"}},{"type":"Feature","geometry":{"type":"Polygon","coordinates":[[[8.42043,50.009059],[8.420452,50.009053],[8.420159,50.00888],[8.420131,50.008886],[8.42011,50.00889],[8.420411,50.009065],[8.42043,50.009059]]]},"properties":{"layer":"infra","cls":"bridge"}},{"type":"Feature","geometry":{"type":"Polygon","coordinates":[[[8.419049,50.010705],[8.418997,50.010562],[8.418821,50.010589],[8.418872,50.010731],[8.419049,50.010705]]]},"properties":{"layer":"infra","cls":"parking"}},{"type":"Feature","geometry":{"type":"Polygon","coordinates":[[[8.419283,50.010991],[8.419236,50.010854],[8.419088,50.010875],[8.419135,50.011012],[8.419283,50.010991]]]},"properties":{"layer":"infra","cls":"parking"}},{"type":"Feature","geometry":{"type":"Polygon","coordinates":[[[8.419624,50.011295],[8.419573,50.011153],[8.419397,50.011179],[8.419448,50.011321],[8.419624,50.011295]]]},"properties":{"layer":"infra","cls":"parking"}},{"type":"Feature","geometry":{"type":"Polygon","coordinates":[[[8.422407,50.01155],[8.422349,50.011587],[8.422994,50.012],[8.42311,50.012],[8.422407,50.01155]]]},"properties":{"layer":"infra","cls":"parking"}},{"type":"Feature","geometry":{"type":"Polygon","coordinates":[[[8.422815,50.01198],[8.422862,50.01195],[8.422579,50.011763],[8.422531,50.011792],[8.422815,50.01198]]]},"properties":{"layer":"infra","cls":"parking"}},{"type":"Feature","geometry":{"type":"Polygon","coordinates":[[[8.422404,50.011375],[8.422313,50.011433],[8.423192,50.012],[8.423373,50.012],[8.422404,50.011375]]]},"properties":{"layer":"infra","cls":"parking"}},{"type":"Feature","geometry":{"type":"Polygon","coordinates":[[[8.421729,50.011914],[8.422237,50.011593],[8.422143,50.011531],[8.421635,50.011852],[8.421729,50.011914]]]},"properties":{"layer":"infra","cls":"parking"}},{"type":"Feature","geometry":{"type":"Polygon","coordinates":[[[8.419901,50.01158],[8.419844,50.011404],[8.419665,50.011428],[8.419722,50.011604],[8.419901,50.01158]]]},"properties":{"layer":"infra","cls":"parking"}},{"type":"Feature","geometry":{"type":"Polygon","coordinates":[[[8.420369,50.010676],[8.420932,50.010674],[8.420931,50.01054],[8.420426,50.010542],[8.420426,50.010528],[8.420356,50.010528],[8.420357,50.010676],[8.420369,50.010676]]]},"properties":{"layer":"infra","cls":"parking"}},{"type":"Feature","geometry":{"type":"Polygon","coordinates":[[[8.41069,50.007697],[8.410769,50.007742],[8.410921,50.007781],[8.410986,50.007791],[8.411,50.007749],[8.410679,50.007649],[8.41069,50.007697]]]},"properties":{"layer":"infra","cls":"parking"}},{"type":"Feature","geometry":{"type":"Polygon","coordinates":[[[8.415921,50.009418],[8.415789,50.009395],[8.415593,50.009606],[8.415721,50.009626],[8.415801,50.009639],[8.415994,50.009431],[8.415921,50.009418]]]},"properties":{"layer":"infra","cls":"bridge"}},{"type":"Feature","geometry":{"type":"Polygon","coordinates":[[[8.415758,50.008566],[8.415676,50.008549],[8.415391,50.008903],[8.415244,50.009118],[8.415504,50.009196],[8.415579,50.009075],[8.416219,50.008677],[8.41608,50.008602],[8.415805,50.008513],[8.415758,50.008566]]]},"properties":{"layer":"infra","cls":"parking"}},{"type":"Feature","geometry":{"type":"Polygon","coordinates":[[[8.414171,50.00751],[8.414781,50.006677],[8.415687,50.006951],[8.415725,50.006899],[8.415964,50.006971],[8.41607,50.006846],[8.415759,50.006713],[8.415663,50.006672],[8.415315,50.006547],[8.41458,50.006427],[8.413865,50.007455],[8.414171,50.00751]]]},"properties":{"layer":"infra","cls":"parking"}},{"type":"Feature","geometry":{"type":"Polygon","coordinates":[[[8.412921,50.00528],[8.412939,50.005259],[8.412969,50.005226],[8.413001,50.005191],[8.412864,50.005135],[8.41283,50.00517],[8.4128,50.005201],[8.412779,50.005223],[8.412921,50.00528]]]},"properties":{"layer":"infra","cls":"bridge"}},{"type":"Feature","geometry":{"type":"Polygon","coordinates":[[[8.415021,50.003783],[8.414928,50.003925],[8.416321,50.004349],[8.416794,50.004537],[8.417078,50.004261],[8.415083,50.003267],[8.414716,50.003625],[8.415021,50.003783]]]},"properties":{"layer":"infra","cls":"parking"}},{"type":"Feature","geometry":{"type":"Polygon","coordinates":[[[8.404179,49.998891],[8.403989,49.998876],[8.403972,49.999026],[8.40453,49.999073],[8.404662,49.998931],[8.404506,49.998919],[8.404226,49.998894],[8.404179,49.998891]]]},"properties":{"layer":"infra","cls":"parking"}},{"type":"Feature","geometry":{"type":"Polygon","coordinates":[[[8.404941,49.998565],[8.404995,49.998573],[8.405226,49.998272],[8.405017,49.998234],[8.404969,49.998226],[8.404894,49.998557],[8.404941,49.998565]]]},"properties":{"layer":"infra","cls":"parking"}},{"type":"Feature","geometry":{"type":"Polygon","coordinates":[[[8.40488,49.998091],[8.404889,49.99805],[8.404944,49.99779],[8.404432,49.997745],[8.404368,49.998045],[8.40488,49.998091]]]},"properties":{"layer":"infra","cls":"parking"}},{"type":"Feature","geometry":{"type":"Polygon","coordinates":[[[8.418118,49.998549],[8.418157,49.998515],[8.418031,49.998456],[8.417992,49.99849],[8.418118,49.998549]]]},"properties":{"layer":"infra","cls":"parking"}},{"type":"Feature","geometry":{"type":"Polygon","coordinates":[[[8.417897,49.998745],[8.417999,49.998681],[8.417959,49.998655],[8.417857,49.998719],[8.417897,49.998745]]]},"properties":{"layer":"infra","cls":"parking"}},{"type":"Feature","geometry":{"type":"Polygon","coordinates":[[[8.417603,49.998549],[8.417646,49.99852],[8.417551,49.998461],[8.417378,49.998353],[8.417336,49.998381],[8.417603,49.998549]]]},"properties":{"layer":"infra","cls":"parking"}},{"type":"Feature","geometry":{"type":"Polygon","coordinates":[[[8.417658,49.998336],[8.417815,49.998418],[8.417869,49.998376],[8.417576,49.998221],[8.417522,49.998264],[8.417658,49.998336]]]},"properties":{"layer":"infra","cls":"parking"}},{"type":"Feature","geometry":{"type":"Polygon","coordinates":[[[8.419103,50.000299],[8.419047,50.000243],[8.418911,50.00014],[8.418815,50.000086],[8.418667,50.000199],[8.419126,50.000465],[8.4192,50.000402],[8.419173,50.000341],[8.419103,50.000299]]]},"properties":{"layer":"infra","cls":"parking"}},{"type":"Feature","geometry":{"type":"Polygon","coordinates":[[[8.417367,50.000594],[8.41744,50.000659],[8.417573,50.000596],[8.417511,50.000542],[8.4175,50.000532],[8.417367,50.000594]]]},"properties":{"layer":"infra","cls":"pier"}},{"type":"Feature","geometry":{"type":"Polygon","coordinates":[[[8.423171,50.003977],[8.423101,50.003864],[8.423081,50.003834],[8.423064,50.003886],[8.42317,50.004039],[8.423216,50.004024],[8.423171,50.003977]]]},"properties":{"layer":"infra","cls":"parking"}},{"type":"Feature","geometry":{"type":"Polygon","coordinates":[[[8.423212,50.003457],[8.423436,50.003324],[8.423351,50.003269],[8.422931,50.003559],[8.422981,50.003594],[8.423212,50.003457]]]},"properties":{"layer":"infra","cls":"parking"}}]}