{"type":"FeatureCollection","features":[{"type":"Feature","geometry":{"type":"LineString","coordinates":[[8.4235,50.004773],[8.422553,50.004232]]},"properties":{"cls":"power_line"}},{"type":"Feature","geometry":{"type":"LineString","coordinates":[[8.416314,50.008806],[8.416838,50.00819]]},"properties":{"cls":"retaining_wall"}},{"type":"Feature","geometry":{"type":"LineString","coordinates":[[8.418617,50.009375],[8.418667,50.009338],[8.418712,50.009303]]},"properties":{"cls":"guard_rail"}},{"type":"Feature","geometry":{"type":"LineString","coordinates":[[8.417453,50.009576],[8.417724,50.00955],[8.418,50.009524]]},"properties":{"cls":"guard_rail"}},{"type":"Feature","geometry":{"type":"LineString","coordinates":[[8.422316,50.011666],[8.422458,50.011746],[8.422406,50.011778]]},"properties":{"cls":"handrail"}},{"type":"Feature","geometry":{"type":"LineString","coordinates":[[8.404646,50.012],[8.404623,50.011492],[8.404672,50.011191],[8.404662,50.010839]]},"properties":{"cls":"fence"}},{"type":"Feature","geometry":{"type":"LineString","coordinates":[[8.414829,50.005741],[8.413066,50.008318],[8.411221,50.01104],[8.41058,50.012]]},"properties":{"cls":"power_line"}},{"type":"Feature","geometry":{"type":"LineString","coordinates":[[8.41577,50.00541],[8.415026,50.00601],[8.413375,50.008417],[8.411575,50.011103],[8.410965,50.012]]},"properties":{"cls":"power_line"}},{"type":"Feature","geometry":{"type":"LineString","coordinates":[[8.415912,50.005083],[8.415782,50.005258],[8.41577,50.00541]]},"properties":{"cls":"power_line"}},{"type":"Feature","geometry":{"type":"LineString","coordinates":[[8.41577,50.00541],[8.415597,50.005367],[8.415098,50.005226],[8.415101,50.005064],[8.415214,50.004886]]},"properties":{"cls":"power_line"}},{"type":"Feature","geometry":{"type":"LineString","coordinates":[[8.414829,50.005741],[8.415677,50.005231],[8.415808,50.005053]]},"properties":{"cls":"power_line"}},{"type":"Feature","geometry":{"type":"LineString","coordinates":[[8.415705,50.005024],[8.415581,50.005207],[8.414829,50.005741]]},"properties":{"cls":"power_line"}},{"type":"Feature","geometry":{"type":"LineString","coordinates":[[8.414829,50.005741],[8.414959,50.005017],[8.415069,50.004845]]},"properties":{"cls":"power_line"}},{"type":"Feature","geometry":{"type":"LineString","coordinates":[[8.414964,50.004816],[8.414882,50.004943],[8.414829,50.005741]]},"properties":{"cls":"power_line"}},{"type":"Feature","geometry":{"type":"LineString","coordinates":[[8.414788,50.004767],[8.414964,50.004816],[8.415069,50.004845],[8.415116,50.004858],[8.415214,50.004886],[8.415635,50.005005],[8.415705,50.005024],[8.415808,50.005053],[8.415912,50.005083],[8.41596,50.005096]]},"properties":{"cls":"power_line"}},{"type":"Feature","geometry":{"type":"LineString","coordinates":[[8.416015,50.004226],[8.415783,50.004783],[8.415635,50.005005]]},"properties":{"cls":"power_line"}},{"type":"Feature","geometry":{"type":"LineString","coordinates":[[8.415116,50.004858],[8.41526,50.004645],[8.416015,50.004226]]},"properties":{"cls":"power_line"}},{"type":"Feature","geometry":{"type":"LineString","coordinates":[[8.403721,49.997596],[8.405012,49.997713],[8.405715,49.997818]]},"properties":{"cls":"fence"}},{"type":"Feature","geometry":{"type":"LineString","coordinates":[[8.419877,49.998274],[8.419916,49.998288],[8.419937,49.998295],[8.41996,49.998303]]},"properties":{"cls":"fence"}},{"type":"Feature","geometry":{"type":"LineString","coordinates":[[8.419862,49.998458],[8.419838,49.998485],[8.419804,49.998464],[8.419734,49.99842],[8.419877,49.998274],[8.420086,49.99806],[8.420121,49.998073],[8.420586,49.998251],[8.420165,49.998641],[8.420105,49.998604],[8.420073,49.998542]]},"properties":{"cls":"fence"}},{"type":"Feature","geometry":{"type":"LineString","coordinates":[[8.41901,49.999152],[8.418714,49.999345],[8.418743,49.999462],[8.419239,49.999766],[8.419324,49.999767],[8.420013,49.999279],[8.419997,49.999204],[8.419543,49.998892],[8.419337,49.99893],[8.419238,49.998978],[8.419069,49.999008]]},"properties":{"cls":"retaining_wall"}},{"type":"Feature","geometry":{"type":"LineString","coordinates":[[8.418053,49.999223],[8.417888,49.999327],[8.417898,49.999463],[8.417963,49.999542],[8.418067,49.999606],[8.418376,49.999758]]},"properties":{"cls":"retaining_wall"}},{"type":"Feature","geometry":{"type":"LineString","coordinates":[[8.419052,49.999065],[8.419035,49.999075],[8.419005,49.999056],[8.418973,49.999036],[8.419042,49.998991],[8.419051,49.998996],[8.419069,49.999008],[8.419088,49.999021],[8.419104,49.999031],[8.419097,49.999036]]},"properties":{"cls":"wall"}},{"type":"Feature","geometry":{"type":"LineString","coordinates":[[8.419179,49.999089],[8.419097,49.999036],[8.419073,49.999051],[8.419052,49.999065],[8.419133,49.999117]]},"properties":{"cls":"wall"}},{"type":"Feature","geometry":{"type":"LineString","coordinates":[[8.418524,49.99983],[8.418584,49.999862],[8.418942,50.000073],[8.419198,50.000257],[8.419316,50.000294],[8.41943,50.000292],[8.419575,50.000235],[8.419607,50.000152],[8.419858,49.999914],[8.420676,49.999388],[8.420796,49.999271],[8.420807,49.999196],[8.420764,49.999105],[8.420705,49.999069],[8.420421,49.998951],[8.419522,49.998417],[8.419351,49.998416],[8.419113,49.998564],[8.418424,49.998418]]},"properties":{"cls":"retaining_wall"}},{"type":"Feature","geometry":{"type":"LineString","coordinates":[[8.420461,49.999207],[8.420493,49.999204],[8.420526,49.999216],[8.42054,49.999232],[8.420533,49.99926],[8.420517,49.999272],[8.420486,49.999279],[8.420462,49.999275],[8.420439,49.999266]]},"properties":{"cls":"city_wall"}},{"type":"Feature","geometry":{"type":"LineString","coordinates":[[8.420621,49.999885],[8.420281,50.000154],[8.419935,50.000434],[8.419739,50.000548],[8.419485,50.000664],[8.419475,50.000686],[8.420154,50.001265],[8.420178,50.001254],[8.420254,50.001312],[8.420227,50.001327],[8.420949,50.001929],[8.421163,50.001818],[8.421484,50.001778],[8.422872,50.001109],[8.423279,50.000846],[8.423323,50.000803],[8.423001,50.000572],[8.422242,50.000009],[8.422149,49.999991],[8.421461,49.999518],[8.421215,49.999491],[8.421176,49.999488],[8.420732,49.999801],[8.420724,49.999823]]},"properties":{"cls":"fence"}},{"type":"Feature","geometry":{"type":"LineString","coordinates":[[8.417817,50.003812],[8.416015,50.004226]]},"properties":{"cls":"power_line"}},{"type":"Feature","geometry":{"type":"LineString","coordinates":[[8.417817,50.003812],[8.41641,50.004364]]},"properties":{"cls":"power_line"}},{"type":"Feature","geometry":{"type":"LineString","coordinates":[[8.422553,50.004232],[8.417817,50.003812]]},"properties":{"cls":"power_line"}}]}