{"type":"FeatureCollection","features":[{"type":"Feature","geometry":{"type":"LineString","coordinates":[[8.4235,50.010986],[8.423481,50.010972],[8.422987,50.010624],[8.421977,50.009948],[8.421676,50.009756],[8.421279,50.009503],[8.420514,50.009034],[8.420229,50.008862],[8.418696,50.007993],[8.417927,50.007579],[8.417032,50.007118],[8.416359,50.006786],[8.415706,50.006471],[8.415034,50.006163],[8.414018,50.005713],[8.412939,50.005259],[8.4128,50.005201],[8.412562,50.005105],[8.411574,50.004719],[8.410552,50.004336],[8.40948,50.003956],[8.408938,50.003769],[8.408389,50.003587],[8.408017,50.003466],[8.40737,50.003264],[8.406526,50.003014],[8.405443,50.002708],[8.404578,50.002476],[8.403668,50.002245],[8.4035,50.002205]]},"properties":{"cls":"standard_gauge"}},{"type":"Feature","geometry":{"type":"LineString","coordinates":[[8.411297,50.004478],[8.411608,50.004581],[8.411815,50.004659]]},"properties":{"cls":"standard_gauge"}},{"type":"Feature","geometry":{"type":"LineString","coordinates":[[8.411197,50.004379],[8.411664,50.004547],[8.412034,50.004691],[8.412544,50.004915]]},"properties":{"cls":"standard_gauge"}},{"type":"Feature","geometry":{"type":"LineString","coordinates":[[8.41044,50.00388],[8.410692,50.004041],[8.41104,50.00422],[8.411373,50.004349],[8.411665,50.004454],[8.411901,50.004549],[8.412277,50.004696]]},"properties":{"cls":"unknown"}},{"type":"Feature","geometry":{"type":"LineString","coordinates":[[8.404985,50.002422],[8.405256,50.002461],[8.405486,50.002505],[8.406877,50.002896],[8.40807,50.003261],[8.409204,50.003633],[8.409828,50.003856],[8.410227,50.004003],[8.41059,50.004163],[8.411154,50.004414],[8.411297,50.004478],[8.412313,50.00496]]},"properties":{"cls":"standard_gauge"}},{"type":"Feature","geometry":{"type":"LineString","coordinates":[[8.41014,50.00385],[8.409776,50.003659],[8.409357,50.003468],[8.409064,50.003353],[8.40789,50.003003],[8.406825,50.002696],[8.406563,50.002628],[8.406252,50.002563],[8.405886,50.002511]]},"properties":{"cls":"standard_gauge"}},{"type":"Feature","geometry":{"type":"LineString","coordinates":[[8.404562,50.002359],[8.404985,50.002422],[8.405575,50.002574],[8.406802,50.002923],[8.407971,50.003276],[8.408749,50.003527],[8.409386,50.003743],[8.410272,50.004054],[8.41059,50.004163],[8.411197,50.004379]]},"properties":{"cls":"standard_gauge"}},{"type":"Feature","geometry":{"type":"LineString","coordinates":[[8.404918,50.002325],[8.405186,50.002343],[8.405527,50.002386],[8.405909,50.00244],[8.406341,50.002509],[8.406659,50.002584],[8.40708,50.002702],[8.408091,50.003001],[8.409046,50.003276],[8.409316,50.003378],[8.409517,50.00347],[8.409766,50.0036],[8.409961,50.003724],[8.41014,50.00385],[8.410432,50.004021],[8.410615,50.004121],[8.410854,50.004233]]},"properties":{"cls":"standard_gauge"}},{"type":"Feature","geometry":{"type":"LineString","coordinates":[[8.410432,50.004021],[8.410165,50.0039],[8.40976,50.003702],[8.409457,50.003568],[8.409116,50.003436],[8.408807,50.003328],[8.407869,50.003053],[8.406569,50.002677],[8.406219,50.002586],[8.405886,50.002511],[8.405272,50.00242]]},"properties":{"cls":"standard_gauge"}},{"type":"Feature","geometry":{"type":"LineString","coordinates":[[8.410503,50.004017],[8.410329,50.003911],[8.410167,50.003797],[8.410017,50.003667],[8.409743,50.003471],[8.409546,50.003358],[8.409361,50.003276],[8.409068,50.003171],[8.408176,50.002908],[8.406926,50.002543],[8.406561,50.002442],[8.406264,50.002384],[8.406053,50.002352],[8.405752,50.002329],[8.405244,50.002306]]},"properties":{"cls":"standard_gauge"}},{"type":"Feature","geometry":{"type":"LineString","coordinates":[[8.410167,50.003797],[8.410003,50.003702],[8.409743,50.003533],[8.409556,50.003424],[8.409355,50.003333],[8.409133,50.003249],[8.40878,50.003142],[8.407497,50.00277],[8.406611,50.002512],[8.406322,50.002439],[8.406109,50.002402],[8.405841,50.002375],[8.405453,50.002353],[8.405186,50.002343]]},"properties":{"cls":"standard_gauge"}},{"type":"Feature","geometry":{"type":"LineString","coordinates":[[8.404099,50.002246],[8.404562,50.002359],[8.405191,50.002527],[8.407151,50.003075],[8.408788,50.003588],[8.409525,50.003841],[8.409835,50.003942],[8.410272,50.004054]]},"properties":{"cls":"standard_gauge"}},{"type":"Feature","geometry":{"type":"LineString","coordinates":[[8.410165,50.0039],[8.409695,50.00372],[8.408768,50.003379],[8.408284,50.003228],[8.407842,50.003095],[8.406598,50.002739],[8.40592,50.002569],[8.405272,50.00242],[8.40448,50.002301]]},"properties":{"cls":"standard_gauge"}},{"type":"Feature","geometry":{"type":"LineString","coordinates":[[8.405634,50.00229],[8.405897,50.0023],[8.406133,50.002314],[8.406372,50.002342],[8.406607,50.002387],[8.406947,50.002482],[8.407991,50.002784],[8.409019,50.003084],[8.40926,50.003165],[8.409486,50.003258],[8.409666,50.003354],[8.409872,50.00349],[8.410086,50.003667],[8.410305,50.003841]]},"properties":{"cls":"standard_gauge"}},{"type":"Feature","geometry":{"type":"LineString","coordinates":[[8.4035,50.002099],[8.404099,50.002246],[8.40448,50.002301],[8.404918,50.002325],[8.405244,50.002306],[8.405634,50.00229],[8.406015,50.002283],[8.406312,50.002295],[8.406567,50.002325],[8.406885,50.002406],[8.407825,50.002675],[8.408936,50.002994],[8.409264,50.003094],[8.409457,50.003173],[8.409664,50.003279],[8.409851,50.003395],[8.410001,50.003509],[8.410142,50.003659],[8.410305,50.003841],[8.410503,50.004017],[8.410665,50.004123],[8.410854,50.004233],[8.411197,50.004379]]},"properties":{"cls":"standard_gauge"}},{"type":"Feature","geometry":{"type":"LineString","coordinates":[[8.4035,50.002166],[8.403685,50.00221],[8.404588,50.002441],[8.405461,50.002674],[8.406552,50.002982],[8.407385,50.003229],[8.408046,50.003435],[8.408416,50.003555],[8.408964,50.003737],[8.409516,50.003927],[8.410574,50.004302],[8.411603,50.004687],[8.412313,50.00496],[8.412358,50.00498],[8.41283,50.00517],[8.412969,50.005226],[8.414049,50.005681],[8.415069,50.006133],[8.415734,50.00644],[8.416396,50.006759],[8.417068,50.007088],[8.417955,50.007545],[8.418734,50.007964],[8.4203,50.008849],[8.42057,50.009017],[8.421321,50.00948],[8.422023,50.009927],[8.423029,50.010602],[8.4235,50.010935]]},"properties":{"cls":"standard_gauge"}},{"type":"Feature","geometry":{"type":"LineString","coordinates":[[8.379953,49.9812],[8.380074,49.981123],[8.380476,49.980888],[8.381385,49.980372],[8.384314,49.97875],[8.386448,49.977559],[8.387158,49.977145],[8.387701,49.976816],[8.389802,49.975522],[8.390493,49.975097],[8.390788,49.974915],[8.391427,49.97453],[8.391638,49.974405],[8.393198,49.973528],[8.393644,49.973274],[8.393934,49.973115]]},"properties":{"cls":"standard_gauge"}},{"type":"Feature","geometry":{"type":"LineString","coordinates":[[8.379145,49.9812],[8.379355,49.981108],[8.379825,49.980884],[8.38019,49.980678],[8.380763,49.980364],[8.381353,49.98004],[8.382132,49.979602]]},"properties":{"cls":"standard_gauge"}},{"type":"Feature","geometry":{"type":"LineString","coordinates":[[8.380763,49.980364],[8.380069,49.980802]]},"properties":{"cls":"standard_gauge"}},{"type":"Feature","geometry":{"type":"LineString","coordinates":[[8.379325,49.9812],[8.379425,49.981152],[8.379831,49.98093],[8.380069,49.980802],[8.380648,49.98048],[8.381336,49.980096],[8.381738,49.979877],[8.384089,49.978575],[8.386232,49.977387],[8.387557,49.97666],[8.388463,49.97616],[8.388616,49.976076],[8.389333,49.975679]]},"properties":{"cls":"standard_gauge"}},{"type":"Feature","geometry":{"type":"LineString","coordinates":[[8.379826,49.9812],[8.380903,49.980588],[8.381345,49.980343],[8.384261,49.97872],[8.386406,49.977525],[8.38664,49.977394],[8.386745,49.977332],[8.387325,49.976991],[8.387678,49.976774],[8.388463,49.976262],[8.388895,49.975964],[8.388934,49.975939],[8.389333,49.975679],[8.389374,49.975656]]},"properties":{"cls":"standard_gauge"}},{"type":"Feature","geometry":{"type":"LineString","coordinates":[[8.379826,49.9812],[8.380375,49.980828],[8.380799,49.980527],[8.381233,49.980229],[8.381738,49.979877],[8.382132,49.979602]]},"properties":{"cls":"standard_gauge"}},{"type":"Feature","geometry":{"type":"LineString","coordinates":[[8.380375,49.980828],[8.381158,49.980371],[8.384211,49.978681],[8.386371,49.977486],[8.386703,49.977302],[8.386816,49.97724],[8.387325,49.976991]]},"properties":{"cls":"standard_gauge"}},{"type":"Feature","geometry":{"type":"LineString","coordinates":[[8.382132,49.979602],[8.384036,49.978548],[8.3862,49.977355],[8.387525,49.976624],[8.389356,49.975603],[8.390376,49.975041],[8.390739,49.974837],[8.392045,49.974122]]},"properties":{"cls":"standard_gauge"}},{"type":"Feature","geometry":{"type":"LineString","coordinates":[[8.382132,49.979602],[8.382486,49.979359],[8.382651,49.979254],[8.383999,49.978513],[8.386152,49.977319],[8.38748,49.976594],[8.389308,49.975574],[8.39033,49.975004],[8.390693,49.974806],[8.390846,49.974723],[8.391197,49.974536],[8.391412,49.974423],[8.392045,49.974122]]},"properties":{"cls":"standard_gauge"}},{"type":"Feature","geometry":{"type":"LineString","coordinates":[[8.38479,49.978534],[8.385019,49.978428],[8.385257,49.978332]]},"properties":{"cls":"unknown"}},{"type":"Feature","geometry":{"type":"LineString","coordinates":[[8.388895,49.975964],[8.388587,49.976155],[8.388286,49.976319],[8.387586,49.9767],[8.386282,49.977418],[8.384129,49.978611],[8.381839,49.97989],[8.381233,49.980229]]},"properties":{"cls":"standard_gauge"}},{"type":"Feature","geometry":{"type":"LineString","coordinates":[[8.380799,49.980527],[8.381413,49.980174],[8.384178,49.978641],[8.386326,49.977451],[8.387625,49.976739],[8.387827,49.976626],[8.388463,49.976262]]},"properties":{"cls":"standard_gauge"}},{"type":"Feature","geometry":{"type":"LineString","coordinates":[[8.389413,49.977103],[8.389463,49.97709],[8.389499,49.977066],[8.389534,49.977031],[8.389542,49.977002],[8.389543,49.976977]]},"properties":{"cls":"unknown"}},{"type":"Feature","geometry":{"type":"LineString","coordinates":[[8.390596,49.974971],[8.390574,49.974983],[8.390002,49.975301],[8.389374,49.975656]]},"properties":{"cls":"standard_gauge"}},{"type":"Feature","geometry":{"type":"LineString","coordinates":[[8.389374,49.975656],[8.390101,49.975312],[8.390493,49.975097]]},"properties":{"cls":"standard_gauge"}},{"type":"Feature","geometry":{"type":"LineString","coordinates":[[8.387327,49.977793],[8.387322,49.977788],[8.387312,49.977772],[8.3873,49.977744],[8.387289,49.977711],[8.387292,49.97768],[8.387301,49.97766],[8.387325,49.977639],[8.387363,49.977628],[8.387414,49.977618],[8.38746,49.97762],[8.387499,49.97763],[8.387541,49.977652],[8.387568,49.977678],[8.387588,49.977721],[8.387625,49.977759],[8.387692,49.977806],[8.387735,49.977831],[8.387766,49.97784],[8.387812,49.977842],[8.387868,49.977843],[8.387974,49.97783],[8.388064,49.977807],[8.388136,49.977781],[8.388241,49.977733],[8.388362,49.977669],[8.388466,49.977602],[8.388601,49.977524],[8.388826,49.977418],[8.389022,49.977324],[8.389207,49.977214],[8.389413,49.977103],[8.389474,49.977066],[8.389505,49.977033],[8.389537,49.97699],[8.389543,49.976977],[8.38956,49.976945],[8.389579,49.976869],[8.389604,49.976821],[8.389643,49.976799],[8.389692,49.976787],[8.389753,49.976786],[8.389818,49.976805],[8.389865,49.976823],[8.389899,49.976844],[8.38994,49.976878],[8.389951,49.976901],[8.389948,49.97693],[8.389926,49.976958],[8.389899,49.976978],[8.38987,49.976989],[8.389809,49.976998],[8.389759,49.976996],[8.389707,49.976995],[8.389659,49.977003],[8.389625,49.977017],[8.38959,49.977041],[8.389529,49.977098],[8.389478,49.977139],[8.389117,49.977428],[8.389067,49.977463],[8.388952,49.977552],[8.388866,49.97764],[8.388783,49.977702],[8.388743,49.977745],[8.388696,49.977766],[8.388669,49.977772],[8.38864,49.977773],[8.388575,49.977771],[8.388493,49.977759],[8.388467,49.977755],[8.388437,49.97775],[8.388362,49.977754],[8.388292,49.977768],[8.388158,49.977811],[8.388099,49.977831],[8.388,49.977854],[8.387903,49.977875],[8.387811,49.977905],[8.387774,49.97792],[8.387733,49.97795],[8.387692,49.977963],[8.387639,49.977972],[8.387593,49.977972],[8.387561,49.977963],[8.387529,49.977949],[8.387498,49.977927],[8.387495,49.977925]]},"properties":{"cls":"unknown"}},{"type":"Feature","geometry":{"type":"LineString","coordinates":[[8.389478,49.977139],[8.38943,49.977159],[8.3891,49.977423],[8.389067,49.977463]]},"properties":{"cls":"unknown"}},{"type":"Feature","geometry":{"type":"LineString","coordinates":[[8.38864,49.977773],[8.388579,49.977775],[8.388557,49.977779],[8.38848,49.977795],[8.388407,49.977815],[8.38834,49.977838],[8.388274,49.97787],[8.388221,49.977906],[8.388191,49.977945],[8.388179,49.977987],[8.388169,49.978033],[8.38815,49.978079],[8.38812,49.978105],[8.388088,49.978117],[8.388024,49.978122],[8.387977,49.978121],[8.387905,49.978116],[8.387841,49.978114],[8.38775,49.978111],[8.387683,49.978106],[8.387629,49.978097],[8.387573,49.978069],[8.387503,49.978023],[8.387434,49.977968],[8.387353,49.977909],[8.387289,49.977871],[8.387199,49.977826],[8.387178,49.977802],[8.387177,49.977784],[8.387175,49.977776],[8.38718,49.977752],[8.387191,49.97773],[8.387215,49.9777],[8.387274,49.977675],[8.387325,49.977639]]},"properties":{"cls":"unknown"}},{"type":"Feature","geometry":{"type":"LineString","coordinates":[[8.387774,49.97792],[8.387722,49.977936],[8.387692,49.977938],[8.387647,49.977932],[8.387573,49.977894],[8.387447,49.977826],[8.387399,49.977802],[8.387364,49.977785],[8.387326,49.977749],[8.387308,49.977704],[8.387312,49.977672],[8.387325,49.977653],[8.387362,49.977636],[8.387396,49.977631],[8.387437,49.977627],[8.38748,49.977634],[8.387528,49.977657],[8.387552,49.977674],[8.387588,49.977721]]},"properties":{"cls":"unknown"}},{"type":"Feature","geometry":{"type":"LineString","coordinates":[[8.387178,49.977802],[8.387235,49.977874],[8.387275,49.977909],[8.387334,49.977966],[8.387375,49.977994],[8.387423,49.97803],[8.387479,49.978049],[8.387536,49.978069],[8.387629,49.978097],[8.38755,49.978067],[8.387506,49.978045],[8.387462,49.978023],[8.387289,49.977892],[8.387199,49.977826]]},"properties":{"cls":"unknown"}},{"type":"Feature","geometry":{"type":"LineString","coordinates":[[8.387495,49.977925],[8.387332,49.977799],[8.387327,49.977793]]},"properties":{"cls":"unknown"}},{"type":"Feature","geometry":{"type":"LineString","coordinates":[[8.383321,49.97883],[8.383953,49.978494],[8.386114,49.977296],[8.387452,49.976559],[8.389259,49.975543],[8.390292,49.974982],[8.391131,49.974515],[8.391256,49.974446],[8.391638,49.974263],[8.39204,49.974084],[8.392381,49.973931]]},"properties":{"cls":"standard_gauge"}},{"type":"Feature","geometry":{"type":"LineString","coordinates":[[8.383388,49.97875],[8.383917,49.978462],[8.386064,49.977269],[8.387409,49.976523],[8.389228,49.975515],[8.390259,49.974953],[8.391009,49.97453],[8.391196,49.974426],[8.391235,49.974405],[8.391441,49.974312],[8.39204,49.974084]]},"properties":{"cls":"standard_gauge"}},{"type":"Feature","geometry":{"type":"LineString","coordinates":[[8.392045,49.974122],[8.392381,49.973931],[8.392867,49.973658],[8.39315,49.973502],[8.393362,49.973391]]},"properties":{"cls":"standard_gauge"}},{"type":"Feature","geometry":{"type":"LineString","coordinates":[[8.390788,49.974915],[8.391552,49.974507]]},"properties":{"cls":"standard_gauge"}},{"type":"Feature","geometry":{"type":"LineString","coordinates":[[8.393611,49.973013],[8.393503,49.973153],[8.393281,49.973384],[8.39315,49.973502]]},"properties":{"cls":"standard_gauge"}},{"type":"Feature","geometry":{"type":"LineString","coordinates":[[8.393362,49.973391],[8.393934,49.973115]]},"properties":{"cls":"standard_gauge"}},{"type":"Feature","geometry":{"type":"LineString","coordinates":[[8.393362,49.973391],[8.393648,49.973223],[8.393831,49.973122],[8.394243,49.972873],[8.394452,49.972746]]},"properties":{"cls":"standard_gauge"}},{"type":"Feature","geometry":{"type":"LineString","coordinates":[[8.394058,49.973049],[8.394979,49.97259]]},"properties":{"cls":"standard_gauge"}},{"type":"Feature","geometry":{"type":"LineString","coordinates":[[8.396,49.972022],[8.394979,49.97259],[8.394196,49.973015],[8.393888,49.973183],[8.393012,49.973674],[8.391925,49.974291],[8.391723,49.974404],[8.391552,49.974507],[8.390941,49.974882],[8.390416,49.975203],[8.387743,49.976848],[8.38724,49.977155],[8.386485,49.977592],[8.38479,49.978534],[8.384342,49.978783],[8.381422,49.980403],[8.380534,49.980906],[8.380105,49.981153],[8.380031,49.9812]]},"properties":{"cls":"standard_gauge"}},{"type":"Feature","geometry":{"type":"LineString","coordinates":[[8.393934,49.973115],[8.394058,49.973049],[8.394856,49.972602],[8.396,49.971971]]},"properties":{"cls":"standard_gauge"}}]}