{"type":"FeatureCollection","features":[{"type":"Feature","geometry":{"type":"Polygon","coordinates":[[[8.40859,49.997661],[8.408663,49.9975],[8.407762,49.9975],[8.40859,49.997661]]]},"properties":{"sub":"river"}},{"type":"Feature","geometry":{"type":"LineString","coordinates":[[8.4035,49.999984],[8.40353,49.999925],[8.403837,49.99941],[8.403852,49.998987],[8.4035,49.998667]]},"properties":{"sub":"stream","name":"Wickerbach"}},{"type":"Feature","geometry":{"type":"Polygon","coordinates":[[[8.403988,50.000285],[8.404044,50.000284],[8.4041,50.000275],[8.40416,50.000252],[8.404214,50.000213],[8.404241,50.000173],[8.40425,50.000138],[8.404243,50.000095],[8.404216,50.000053],[8.404179,50.000023],[8.404126,49.999997],[8.404077,49.999984],[8.404014,49.999978],[8.403955,49.999982],[8.403902,49.999995],[8.403848,50.000019],[8.403814,50.000044],[8.403778,50.000095],[8.403771,50.000143],[8.403786,50.000185],[8.403819,50.000225],[8.403861,50.000253],[8.403926,50.000276],[8.403988,50.000285]]]},"properties":{"sub":"water"}},{"type":"Feature","geometry":{"type":"Polygon","coordinates":[[[8.40449,50.000427],[8.404545,50.000426],[8.404602,50.000416],[8.404661,50.000394],[8.404715,50.000354],[8.404742,50.000315],[8.404751,50.000279],[8.404744,50.000237],[8.404717,50.000195],[8.40468,50.000164],[8.404628,50.000139],[8.404578,50.000126],[8.404516,50.00012],[8.404457,50.000124],[8.404404,50.000136],[8.40435,50.00016],[8.404316,50.000185],[8.40428,50.000236],[8.404273,50.000284],[8.404288,50.000327],[8.404321,50.000366],[8.404363,50.000394],[8.404428,50.000417],[8.40449,50.000427]]]},"properties":{"sub":"water"}},{"type":"Feature","geometry":{"type":"Polygon","coordinates":[[[8.404725,50.000606],[8.404941,50.000292],[8.404849,50.000265],[8.404632,50.00058],[8.404725,50.000606]]]},"properties":{"sub":"water"}},{"type":"Feature","geometry":{"type":"Polygon","coordinates":[[[8.404831,50.000636],[8.405046,50.000322],[8.404955,50.000296],[8.404739,50.00061],[8.404831,50.000636]]]},"properties":{"sub":"water"}},{"type":"Feature","geometry":{"type":"Polygon","coordinates":[[[8.404937,50.000664],[8.405152,50.000351],[8.405061,50.000324],[8.404845,50.000638],[8.404937,50.000664]]]},"properties":{"sub":"water"}},{"type":"Feature","geometry":{"type":"Polygon","coordinates":[[[8.404628,50.001103],[8.404879,50.000725],[8.404591,50.000646],[8.40434,50.001024],[8.404628,50.001103]]]},"properties":{"sub":"water"}},{"type":"Feature","geometry":{"type":"Polygon","coordinates":[[[8.408723,50.004183],[8.408839,50.004226],[8.409084,50.004176],[8.40922,50.00421],[8.409828,50.004414],[8.410371,50.004625],[8.410397,50.004656],[8.41057,50.004646],[8.41066,50.004696],[8.410876,50.004784],[8.410896,50.004784],[8.410892,50.004728],[8.409035,50.004104],[8.408887,50.004061],[8.408805,50.004047],[8.408762,50.004055],[8.408727,50.004079],[8.408663,50.004161],[8.408672,50.004172],[8.408723,50.004183]]]},"properties":{"sub":"water"}},{"type":"Feature","geometry":{"type":"LineString","coordinates":[[8.4235,50.006512],[8.421845,50.005074],[8.420583,50.004056],[8.41837,50.002066],[8.41704,50.001035],[8.415683,50.000097],[8.413218,49.998616],[8.411971,49.998086],[8.410431,49.997555],[8.410229,49.9975]]},"properties":{"sub":"river","name":"Main"}},{"type":"Feature","geometry":{"type":"Polygon","coordinates":[[[8.415033,50.008331],[8.415074,50.008274],[8.415072,50.008204],[8.415022,50.008151],[8.414963,50.008135],[8.414953,50.008093],[8.415,50.008034],[8.41501,50.007991],[8.415003,50.00795],[8.414966,50.007923],[8.414903,50.007903],[8.414839,50.007885],[8.414723,50.00789],[8.414651,50.007896],[8.414593,50.007939],[8.414557,50.007998],[8.414564,50.008045],[8.41463,50.008089],[8.414719,50.008105],[8.414741,50.008157],[8.414712,50.008181],[8.414584,50.008198],[8.414491,50.008242],[8.414448,50.008302],[8.414475,50.008375],[8.414556,50.008428],[8.414644,50.00844],[8.414744,50.008423],[8.415033,50.008331]]]},"properties":{"sub":"pond"}},{"type":"Feature","geometry":{"type":"Polygon","coordinates":[[[8.40859,49.997661],[8.410308,49.998123],[8.411971,49.998704],[8.412357,49.998892],[8.412665,49.999136],[8.41273,49.999299],[8.411372,49.999414],[8.410504,50.000458],[8.410123,50.001048],[8.410764,50.001233],[8.41137,50.001408],[8.411858,50.00079],[8.412069,50.000808],[8.413332,50.001595],[8.413857,50.001201],[8.413489,50.000919],[8.413085,50.000674],[8.413396,50.000049],[8.41348,49.999856],[8.413479,49.999677],[8.413564,49.999605],[8.413695,49.999595],[8.413754,49.9997],[8.414202,49.999939],[8.414614,50.000177],[8.415335,50.000677],[8.416356,50.001401],[8.420877,50.005175],[8.422408,50.006432],[8.4235,50.007295],[8.4235,50.005574],[8.422689,50.004884],[8.422365,50.00459],[8.421135,50.003611],[8.420844,50.003322],[8.420477,50.003055],[8.419734,50.002389],[8.419442,50.002208],[8.41824,50.001229],[8.418121,50.001131],[8.417562,50.000676],[8.417207,50.00037],[8.416758,50.000062],[8.416222,49.999747],[8.416083,49.999624],[8.415881,49.999547],[8.415819,49.999511],[8.415668,49.999423],[8.41551,49.999327],[8.415202,49.999083],[8.414864,49.998877],[8.41466,49.998773],[8.414461,49.998637],[8.4143,49.998525],[8.413995,49.99837],[8.41367,49.998214],[8.413386,49.998037],[8.413118,49.997852],[8.41293,49.997799],[8.412686,49.997718],[8.412354,49.997566],[8.412153,49.997501],[8.41215,49.9975],[8.408663,49.9975],[8.40859,49.997661]]]},"properties":{"sub":"river"}}]}